[
  {
    "nodeId": 6105,
    "scientific_name": "Actinia tenebrosa",
    "name": "anemone",
    "parentId": 6104,
    "name_es": "anémona",
    "name_fr": "anémone",
    "name_hu": "tengeri rózsa",
    "name_it": "anemone",
    "name_pt": "anêmona-do-mar",
    "name_ca": "anèmona",
    "name_ko": "말미잘",
    "name_de": "Seeanemone",
    "name_uk": "анемона",
    "name_tr": "deniz anemonu"
  },
  {
    "nodeId": 7022,
    "scientific_name": "Carausius morosus",
    "name": "stick bug",
    "parentId": 7021,
    "name_es": "insecto palo",
    "name_fr": "phasme",
    "name_hu": "botsáska",
    "name_it": "insetto stecco",
    "name_pt": "bicho-pau",
    "name_ca": "insecte pal",
    "name_ko": "대벌레",
    "name_de": "Indische Stabschrecke",
    "name_uk": "паличник",
    "name_tr": "dal böceği"
  },
  {
    "nodeId": 7051,
    "scientific_name": "Nipponoluciola cruciata",
    "name": "firefly",
    "parentId": 3019017,
    "name_es": "luciérnaga",
    "name_fr": "luciole",
    "name_hu": "szentjánosbogár",
    "name_it": "lucciola",
    "name_pt": "vagalume",
    "name_ca": "cuca de llum",
    "name_ko": "반딧불이",
    "name_de": "Genji-Leuchtkäfer",
    "name_uk": "світлячок",
    "name_tr": "ateş böceği"
  },
  {
    "nodeId": 7091,
    "scientific_name": "Bombyx mori",
    "name": "silkworm",
    "parentId": 7090,
    "name_es": "gusano de seda",
    "name_fr": "ver à soie",
    "name_hu": "selyemhernyó",
    "name_it": "baco da seta",
    "name_pt": "bicho-da-seda",
    "name_ca": "cuc de seda",
    "name_ko": "누에나방",
    "name_de": "Seidenspinner",
    "name_uk": "шовкопряд",
    "name_tr": "ipek böceği"
  },
  {
    "nodeId": 7159,
    "scientific_name": "Aedes aegypti",
    "name": "mosquito",
    "parentId": 53541,
    "name_es": "mosquito",
    "name_fr": "moustique",
    "name_hu": "szúnyog",
    "name_it": "zanzara",
    "name_pt": "mosquito",
    "name_ca": "mosquit",
    "name_ko": "모기",
    "name_de": "Ägyptische Tigermücke",
    "name_uk": "комар",
    "name_tr": "sivrisinek"
  },
  {
    "nodeId": 7227,
    "scientific_name": "Drosophila melanogaster",
    "name": "fruit fly",
    "parentId": 32351,
    "name_es": "mosca de fruta",
    "name_fr": "drosophile",
    "name_hu": "muslica",
    "name_it": "moscerino della frutta",
    "name_pt": "mosca da fruta",
    "name_ca": "mosca de la fruita",
    "name_ko": "초파리",
    "name_de": "Fruchtfliege",
    "name_uk": "плодова мушка",
    "name_tr": "meyve sineği"
  },
  {
    "nodeId": 7370,
    "scientific_name": "Musca domestica",
    "name": "house fly",
    "parentId": 44052,
    "name_es": "mosca de casa",
    "name_fr": "mouche",
    "name_hu": "házilégy",
    "name_it": "mosca domestica",
    "name_pt": "mosca doméstica",
    "name_ca": "mosca domèstica",
    "name_ko": "집파리",
    "name_de": "Stubenfliege",
    "name_uk": "муха",
    "name_tr": "karasinek"
  },
  {
    "nodeId": 7445,
    "scientific_name": "Vespa crabro",
    "name": "hornet",
    "parentId": 7443,
    "name_es": "avispón",
    "name_fr": "frelon",
    "name_hu": "lódarázs",
    "name_it": "calabrone",
    "name_pt": "marimbondo",
    "name_ca": "vespa crabro",
    "name_ko": "장수말벌",
    "name_de": "Hornisse",
    "name_uk": "шершень",
    "name_tr": "eşek arısı"
  },
  {
    "nodeId": 7460,
    "scientific_name": "Apis mellifera",
    "name": "honey bee",
    "parentId": 7459,
    "name_es": "abeja de miel",
    "name_fr": "abeille",
    "name_hu": "háziméh",
    "name_it": "ape del miele",
    "name_pt": "abelha",
    "name_ca": "abella de la mel",
    "name_ko": "꿀벌",
    "name_de": "Honigbiene",
    "name_uk": "бджола",
    "name_tr": "bal arısı"
  },
  {
    "nodeId": 7604,
    "scientific_name": "Asterias rubens",
    "name": "starfish",
    "parentId": 7601,
    "name_es": "estrella de mar",
    "name_fr": "étoile de mer",
    "name_hu": "tengeri csillag",
    "name_it": "stella marina",
    "name_pt": "estrela do mar",
    "name_ca": "estrella de mar",
    "name_ko": "불가사리",
    "name_de": "Seestern",
    "name_uk": "морська зірка",
    "name_tr": "deniz yıldızı"
  },
  {
    "nodeId": 7957,
    "scientific_name": "Carassius auratus",
    "name": "goldfish",
    "parentId": 7956,
    "name_es": "pez dorado",
    "name_fr": "poisson rouge",
    "name_it": "pesce rosso",
    "name_hu": "aranyhal",
    "name_pt": "peixe dourado",
    "name_ca": "carpí daurat",
    "name_ko": "금붕어",
    "name_de": "Goldfisch",
    "name_uk": "золота рибка",
    "name_tr": "japon balığı"
  },
  {
    "nodeId": 7962,
    "scientific_name": "Cyprinus carpio",
    "name": "carp",
    "parentId": 7961,
    "name_es": "carpa",
    "name_fr": "carpe",
    "name_hu": "ponty",
    "name_it": "carpa",
    "name_pt": "carpa",
    "name_ca": "carpa",
    "name_ko": "잉어",
    "name_de": "Karpfen",
    "name_uk": "короп",
    "name_tr": "sazan balığı"
  },
  {
    "nodeId": 7998,
    "scientific_name": "Ictalurus punctatus",
    "name": "catfish",
    "parentId": 7997,
    "name_es": "pez gato",
    "name_fr": "poisson-chat",
    "name_hu": "törpeharcsa",
    "name_it": "pesce gatto",
    "name_pt": "bagre",
    "name_ca": "peix gat",
    "name_ko": "찬넬메기",
    "name_de": "Katzenwels",
    "name_uk": "сом",
    "name_tr": "kedi balığı"
  },
  {
    "nodeId": 8022,
    "scientific_name": "Oncorhynchus mykiss",
    "name": "trout",
    "parentId": 8016,
    "name_es": "trucha",
    "name_fr": "truite",
    "name_hu": "pisztráng",
    "name_it": "trota",
    "name_pt": "truta",
    "name_ca": "truita",
    "name_ko": "무지개송어",
    "name_de": "Regenbogenforelle",
    "name_uk": "форель",
    "name_tr": "alabalık"
  },
  {
    "nodeId": 8030,
    "scientific_name": "Salmo salar",
    "name": "salmon",
    "parentId": 8028,
    "name_es": "salmón",
    "name_fr": "saumon",
    "name_it": "salmone",
    "name_hu": "lazac",
    "name_pt": "salmão",
    "name_ca": "salmó",
    "name_ko": "연어",
    "name_de": "Lachs",
    "name_uk": "лосось",
    "name_tr": "somon balığı"
  },
  {
    "nodeId": 8049,
    "scientific_name": "Gadus morhua",
    "name": "cod",
    "parentId": 8048,
    "name_es": "bacalao",
    "name_fr": "morue",
    "name_hu": "tőkehal",
    "name_it": "merluzzo",
    "name_pt": "bacalhau",
    "name_ca": "bacallà",
    "name_ko": "대구",
    "name_de": "Kabeljau",
    "name_uk": "тріска",
    "name_tr": "atlantik morinası"
  },
  {
    "nodeId": 8245,
    "scientific_name": "Xiphias gladius",
    "name": "swordfish",
    "parentId": 8244,
    "name_es": "pez espada",
    "name_fr": "espadon",
    "name_hu": "kardhal",
    "name_it": "pesce spada",
    "name_pt": "peixe espada",
    "name_ca": "peix espasa",
    "name_ko": "황새치",
    "name_de": "Schwertfisch",
    "name_uk": "риба-меч",
    "name_tr": "kılıç balığı"
  },
  {
    "nodeId": 8296,
    "scientific_name": "Ambystoma mexicanum",
    "name": "axolotl",
    "parentId": 8295,
    "name_es": "ajolote",
    "name_fr": "axolotl",
    "name_hu": "axolotl",
    "name_it": "axolotl",
    "name_pt": "axolote",
    "name_ca": "axolot",
    "name_ko": "아홀로틀",
    "name_de": "Axolotl",
    "name_uk": "аксолотль",
    "name_tr": "su semenderi"
  },
  {
    "nodeId": 8384,
    "scientific_name": "Bufo bufo",
    "name": "toad",
    "parentId": 8383,
    "name_es": "sapo",
    "name_fr": "crapaud",
    "name_hu": "varangy",
    "name_it": "rospo",
    "name_pt": "sapo",
    "name_ca": "gripau",
    "name_ko": "두꺼비",
    "name_de": "Kröte",
    "name_uk": "жаба",
    "name_tr": "siğilli kurbağa"
  },
  {
    "nodeId": 8400,
    "scientific_name": "Aquarana catesbeiana",
    "name": "bullfrog",
    "parentId": 121236,
    "name_es": "rana mugidora",
    "name_fr": "grenouille-taureau",
    "name_hu": "ökörbéka",
    "name_it": "rana toro americana",
    "name_pt": "sapo-boi",
    "name_ca": "granota toro",
    "name_ko": "황소개구리",
    "name_de": "Ochsenfrosch",
    "name_uk": "жаба-бик",
    "name_tr": "amerikan boğa kurbağası"
  },
  {
    "nodeId": 8496,
    "scientific_name": "Alligator mississippiensis",
    "name": "alligator",
    "parentId": 8495,
    "name_es": "aligátor",
    "name_fr": "alligator",
    "name_hu": "alligátor",
    "name_it": "alligatore",
    "name_pt": "jacaré",
    "name_ca": "al·ligàtor",
    "name_ko": "앨리게이터과 악어",
    "name_de": "Alligator",
    "name_uk": "алігатор",
    "name_tr": "amerikan aligatoru"
  },
  {
    "nodeId": 8502,
    "scientific_name": "Crocodylus porosus",
    "name": "crocodile",
    "parentId": 8500,
    "name_es": "cocodrilo",
    "name_fr": "crocodile",
    "name_hu": "krokodil",
    "name_it": "coccodrillo",
    "name_pt": "cocodilo",
    "name_ca": "cocodril",
    "name_ko": "크로커다일과 악어",
    "name_de": "Krokodil",
    "name_uk": "крокодил",
    "name_tr": "timsah"
  },
  {
    "nodeId": 8688,
    "scientific_name": "Hydrophis platurus",
    "name": "sea snake",
    "parentId": 8683,
    "name_es": "serpiente de mar",
    "name_fr": "serpent marin",
    "name_hu": "tengeri kígyó",
    "name_it": "serpente di mare",
    "name_pt": "serpente marinha",
    "name_ca": "serp de mar",
    "name_ko": "바다뱀",
    "name_de": "Seeschlange",
    "name_uk": "морська змія",
    "name_tr": "deniz yılanı"
  },
  {
    "nodeId": 8790,
    "scientific_name": "Dromaius novaehollandiae",
    "name": "emu",
    "parentId": 8789,
    "name_es": "emú",
    "name_fr": "émeu",
    "name_hu": "emu",
    "name_it": "emù",
    "name_pt": "emu",
    "name_ca": "emú",
    "name_ko": "에뮤",
    "name_de": "Emu",
    "name_uk": "ему",
    "name_tr": "emu"
  },
  {
    "nodeId": 8801,
    "scientific_name": "Struthio camelus",
    "name": "ostrich",
    "parentId": 8800,
    "name_es": "avestruz",
    "name_fr": "autruche",
    "name_hu": "strucc",
    "name_it": "struzzo",
    "name_pt": "avestruz",
    "name_ca": "estruç",
    "name_ko": "타조",
    "name_de": "Strauß",
    "name_uk": "страус",
    "name_tr": "deve kuşu"
  },
  {
    "nodeId": 8853,
    "scientific_name": "Branta canadensis",
    "name": "goose",
    "parentId": 8852,
    "name_es": "ganso",
    "name_fr": "oie",
    "name_hu": "lúd",
    "name_it": "oca canadese",
    "name_pt": "ganso",
    "name_ca": "oca del canadà",
    "name_ko": "캐나다기러기",
    "name_de": "Gans",
    "name_uk": "гусак",
    "name_tr": "kaz"
  },
  {
    "nodeId": 8869,
    "scientific_name": "Cygnus olor",
    "name": "swan",
    "parentId": 8867,
    "name_es": "cisne",
    "name_fr": "cygne",
    "name_hu": "hattyú",
    "name_it": "cigno",
    "name_pt": "cisne",
    "name_ca": "cigne",
    "name_ko": "백조",
    "name_de": "Schwan",
    "name_uk": "лебідь",
    "name_tr": "kuğu"
  },
  {
    "nodeId": 8954,
    "scientific_name": "Falco peregrinus",
    "name": "falcon",
    "parentId": 8952,
    "name_es": "halcón",
    "name_fr": "faucon",
    "name_hu": "sólyom",
    "name_it": "falco pellegrino",
    "name_pt": "falcão",
    "name_ca": "falcó",
    "name_ko": "매",
    "name_de": "Wanderfalke",
    "name_uk": "сокіл",
    "name_tr": "doğan"
  },
  {
    "nodeId": 33614,
    "scientific_name": "Coragyps atratus",
    "name": "black vulture",
    "parentId": 33613,
    "name_es": "buitre negro",
    "name_fr": "vautour moine",
    "name_hu": "hollókeselyű",
    "name_it": "urubù",
    "name_pt": "urubu",
    "name_ca": "voltor",
    "name_ko": "검은대머리수리",
    "name_de": "Schwarzer Geier",
    "name_uk": "стерв'ятник",
    "name_tr": "kara akbaba"
  },
  {
    "nodeId": 9031,
    "scientific_name": "Gallus gallus",
    "name": "chicken",
    "parentId": 9030,
    "name_es": "pollo",
    "name_fr": "coq doré",
    "name_hu": "házi tyúk",
    "name_it": "gallina",
    "name_pt": "galinha",
    "name_ca": "gallina",
    "name_ko": "닭",
    "name_de": "Huhn",
    "name_uk": "курка",
    "name_tr": "tavuk"
  },
  {
    "nodeId": 9042,
    "scientific_name": "Lophura bulweri",
    "name": "pheasant",
    "parentId": 9041,
    "name_es": "faisán",
    "name_fr": "faisan",
    "name_hu": "fácán",
    "name_it": "fagiano",
    "name_pt": "faisão",
    "name_ca": "faisà",
    "name_ko": "꿩",
    "name_de": "Fasan",
    "name_uk": "фазан",
    "name_tr": "sülün"
  },
  {
    "nodeId": 34924,
    "scientific_name": "Pica pica",
    "name": "magpie",
    "parentId": 34923,
    "name_es": "urraca",
    "name_fr": "pie",
    "name_hu": "szarka",
    "name_it": "gazza ladra",
    "name_pt": "Pega",
    "name_ca": "garsa",
    "name_ko": "까치",
    "name_de": "Elster",
    "name_uk": "сорока",
    "name_tr": "saksağan"
  },
  {
    "nodeId": 9187,
    "scientific_name": "Turdus merula",
    "name": "blackbird",
    "parentId": 9186,
    "name_es": "mirlo",
    "name_fr": "merle",
    "name_hu": "feketerigó",
    "name_it": "merlo",
    "name_pt": "melro",
    "name_ca": "merla",
    "name_ko": "유라시아대륙검은지빠귀",
    "name_de": "Amsel",
    "name_uk": "дрізд",
    "name_tr": "karatavuk"
  },
  {
    "nodeId": 9233,
    "scientific_name": "Aptenodytes forsteri",
    "name": "emperor penguin",
    "parentId": 9232,
    "name_es": "pingüino emperador",
    "name_fr": "manchot empereur",
    "name_hu": "császárpingvin",
    "name_it": "pinguino imperatore",
    "name_pt": "pinguim imperador",
    "name_ca": "pingüí emperador",
    "name_ko": "황제펭귄",
    "name_de": "Kaiserpinguin",
    "name_uk": "імператорський пінгвін",
    "name_tr": "imparator penguen"
  },
  {
    "nodeId": 9258,
    "scientific_name": "Ornithorhynchus anatinus",
    "name": "platypus",
    "parentId": 9257,
    "name_es": "ornitorrinco",
    "name_fr": "ornithorynque",
    "name_hu": "kacsacsőrű emlős",
    "name_it": "ornitorinco",
    "name_pt": "ornitorrinco",
    "name_ca": "ornitorrinc",
    "name_ko": "오리너구리",
    "name_de": "Schnabeltier",
    "name_uk": "качкодзьоб",
    "name_tr": "ornitorenk"
  },
  {
    "nodeId": 9261,
    "scientific_name": "Tachyglossus aculeatus",
    "name": "echidna",
    "parentId": 9260,
    "name_es": "equidna",
    "name_fr": "échidné",
    "name_hu": "hangyászsün",
    "name_it": "echidna",
    "name_pt": "equidna",
    "name_ca": "equidna",
    "name_ko": "가시두더지",
    "name_de": "Ameisenigel",
    "name_uk": "єхидна",
    "name_tr": "kısa burunlu dikenli karıncayiyen"
  },
  {
    "nodeId": 9365,
    "scientific_name": "Erinaceus europaeus",
    "name": "hedgehog",
    "parentId": 9364,
    "name_es": "erizo",
    "name_fr": "hérisson",
    "name_hu": "sün",
    "name_it": "riccio",
    "name_pt": "ouriço",
    "name_ca": "eriçó",
    "name_ko": "고슴도치",
    "name_de": "Igel",
    "name_uk": "їжак",
    "name_tr": "kirpi"
  },
  {
    "nodeId": 9430,
    "scientific_name": "Desmodus rotundus",
    "name": "vampire bat",
    "parentId": 9429,
    "name_es": "murciélago vampiro",
    "name_fr": "vampire",
    "name_hu": "denevér",
    "name_it": "pipistrello vampiro",
    "name_pt": "morcego-vampiro",
    "name_ca": "ratpenat vampir",
    "name_ko": "흡혈박쥐",
    "name_de": "Vampirfledermaus",
    "name_uk": "кажан",
    "name_tr": "vampir yarasa"
  },
  {
    "nodeId": 9542,
    "scientific_name": "Macaca fuscata",
    "name": "macaque",
    "parentId": 9539,
    "name_es": "macaco",
    "name_fr": "macaque",
    "name_hu": "makákó",
    "name_it": "macaco",
    "name_pt": "macaco",
    "name_ca": "macaco",
    "name_ko": "일본원숭이",
    "name_de": "Makak",
    "name_uk": "макака",
    "name_tr": "makak maymunu"
  },
  {
    "nodeId": 9561,
    "scientific_name": "Mandrillus sphinx",
    "name": "mandrill",
    "parentId": 9567,
    "name_es": "mandril",
    "name_fr": "mandrill",
    "name_hu": "mandrill",
    "name_it": "mandrillo",
    "name_pt": "mandril",
    "name_ca": "mandril",
    "name_ko": "맨드릴",
    "name_de": "Mandrill",
    "name_uk": "мандриль",
    "name_tr": "mandril"
  },
  {
    "nodeId": 9593,
    "scientific_name": "Gorilla gorilla",
    "name": "gorilla",
    "parentId": 9592,
    "name_es": "gorila",
    "name_fr": "gorille",
    "name_hu": "gorilla",
    "name_it": "gorilla",
    "name_pt": "gorila",
    "name_ca": "goril·la",
    "name_ko": "고릴라",
    "name_de": "Gorilla",
    "name_uk": "горила",
    "name_tr": "goril"
  },
  {
    "nodeId": 9597,
    "scientific_name": "Pan paniscus",
    "name": "bonobo",
    "parentId": 9596,
    "name_es": "bonobo",
    "name_fr": "bonobo",
    "name_hu": "bonobo",
    "name_it": "bonobo",
    "name_pt": "bonobo",
    "name_ca": "bonobo",
    "name_ko": "보노보",
    "name_de": "Bonobo",
    "name_uk": "бонобо",
    "name_tr": "bonobo"
  },
  {
    "nodeId": 9598,
    "scientific_name": "Pan troglodytes",
    "name": "chimpanzee",
    "parentId": 9596,
    "name_es": "chimpancé",
    "name_fr": "chimpanzé",
    "name_hu": "csimpánz",
    "name_it": "scimpanzè",
    "name_pt": "chimpanzé",
    "name_ca": "ximpanzé",
    "name_ko": "침팬지",
    "name_de": "Schimpanse",
    "name_uk": "шимпанзе",
    "name_tr": "şempanze"
  },
  {
    "nodeId": 9601,
    "scientific_name": "Pongo abelii",
    "name": "orangutan",
    "parentId": 9599,
    "name_es": "orangután",
    "name_fr": "orang-outan",
    "name_hu": "orángután",
    "name_it": "orangotango",
    "name_pt": "orangotango",
    "name_ca": "orangutan",
    "name_ko": "오랑우탄",
    "name_de": "Orang-Utan",
    "name_uk": "орангутанг",
    "name_tr": "orangutan"
  },
  {
    "nodeId": 9614,
    "scientific_name": "Canis latrans",
    "name": "coyote",
    "parentId": 9611,
    "name_es": "coyote",
    "name_fr": "coyote",
    "name_hu": "prérifarkas",
    "name_it": "coyote",
    "name_pt": "coiote",
    "name_ca": "coiot",
    "name_ko": "코요테",
    "name_de": "Kojote",
    "name_uk": "койот",
    "name_tr": "kır kurdu"
  },
  {
    "nodeId": 9627,
    "scientific_name": "Vulpes vulpes",
    "name": "red fox",
    "parentId": 9625,
    "name_es": "zorro rojo",
    "name_fr": "renard roux",
    "name_hu": "vörös róka",
    "name_it": "volpe",
    "name_pt": "raposa vermelha",
    "name_ca": "guineu",
    "name_ko": "붉은여우",
    "name_de": "Rotfuchs",
    "name_uk": "лисиця",
    "name_tr": "kızıl tilki"
  },
  {
    "nodeId": 9643,
    "scientific_name": "Ursus americanus",
    "name": "black bear",
    "parentId": 9639,
    "name_es": "oso negro",
    "name_fr": "ours noir",
    "name_hu": "fekete medve",
    "name_it": "orso nero",
    "name_pt": "urso negro",
    "name_ca": "os negre",
    "name_ko": "아메리카흑곰",
    "name_de": "Schwarzbär",
    "name_uk": "чорний ведмідь",
    "name_tr": "kara ayı"
  },
  {
    "nodeId": 9644,
    "scientific_name": "Ursus arctos",
    "name": "brown bear",
    "parentId": 9639,
    "name_es": "oso café",
    "name_fr": "ours brun",
    "name_hu": "barnamedve",
    "name_it": "orso bruno",
    "name_pt": "urso marrom",
    "name_ca": "os marró",
    "name_ko": "불곰",
    "name_de": "Braunbär",
    "name_uk": "бурий ведмідь",
    "name_tr": "boz ayı"
  },
  {
    "nodeId": 9646,
    "scientific_name": "Ailuropoda melanoleuca",
    "name": "giant panda",
    "parentId": 9645,
    "name_es": "panda gigante",
    "name_fr": "panda géant",
    "name_hu": "óriáspanda",
    "name_it": "panda gigante",
    "name_pt": "panda gigante",
    "name_ca": "panda gegant",
    "name_ko": "대왕판다",
    "name_de": "Großer Panda",
    "name_uk": "велика панда",
    "name_tr": "dev panda"
  },
  {
    "nodeId": 9649,
    "scientific_name": "Ailurus fulgens",
    "name": "red panda",
    "parentId": 9648,
    "name_es": "panda rojo",
    "name_fr": "panda roux",
    "name_hu": "vörös macskamedve",
    "name_it": "panda rosso",
    "name_pt": "panda vermelho",
    "name_ca": "panda vermell",
    "name_ko": "레서판다",
    "name_de": "Roter Panda",
    "name_uk": "червона панда",
    "name_tr": "kızıl panda"
  },
  {
    "nodeId": 9654,
    "scientific_name": "Procyon lotor",
    "name": "raccoon",
    "parentId": 9653,
    "name_es": "mapache",
    "name_fr": "raton-laveur",
    "name_hu": "mosómedve",
    "name_it": "procione",
    "name_pt": "guaxinim",
    "name_ca": "os rentador",
    "name_ko": "라쿤",
    "name_de": "Waschbär",
    "name_uk": "єнот",
    "name_tr": "rakun"
  },
  {
    "nodeId": 9666,
    "scientific_name": "Mustela lutreola",
    "name": "mink",
    "parentId": 9665,
    "name_es": "visón",
    "name_fr": "vison",
    "name_hu": "nyérc",
    "name_it": "visone",
    "name_pt": "doninha-europeia",
    "name_ca": "visó europeu",
    "name_ko": "밍크",
    "name_de": "Europäischer Nerz",
    "name_uk": "норка",
    "name_tr": "Avrasya gelinciği"
  },
  {
    "nodeId": 9678,
    "scientific_name": "Crocuta crocuta",
    "name": "hyena",
    "parentId": 9677,
    "name_es": "hiena",
    "name_fr": "hyène",
    "name_hu": "hiéna",
    "name_it": "iena",
    "name_pt": "hiena",
    "name_ca": "hiena",
    "name_ko": "하이에나",
    "name_de": "Hyäne",
    "name_uk": "гієна",
    "name_tr": "sırtlan"
  },
  {
    "nodeId": 9689,
    "scientific_name": "Panthera leo",
    "name": "lion",
    "parentId": 9688,
    "name_es": "león",
    "name_fr": "lion",
    "name_hu": "oroszlán",
    "name_it": "leone",
    "name_pt": "leão",
    "name_ca": "lleó",
    "name_ko": "사자",
    "name_de": "Löwe",
    "name_uk": "лев",
    "name_tr": "aslan"
  },
  {
    "nodeId": 9690,
    "scientific_name": "Panthera onca",
    "name": "jaguar",
    "parentId": 9688,
    "name_es": "jaguar",
    "name_fr": "jaguar",
    "name_hu": "jaguár",
    "name_it": "giaguaro",
    "name_pt": "onça",
    "name_ca": "jaguar",
    "name_ko": "재규어",
    "name_de": "Jaguar",
    "name_uk": "ягуар",
    "name_tr": "jaguar"
  },
  {
    "nodeId": 9691,
    "scientific_name": "Panthera pardus",
    "name": "leopard",
    "parentId": 9688,
    "name_es": "leopardo",
    "name_fr": "léopard",
    "name_hu": "leopárd",
    "name_it": "leopardo",
    "name_pt": "leopardo",
    "name_ca": "leopard",
    "name_ko": "표범",
    "name_de": "Leopard",
    "name_uk": "леопард",
    "name_tr": "leopar"
  },
  {
    "nodeId": 9694,
    "scientific_name": "Panthera tigris",
    "name": "tiger",
    "parentId": 9688,
    "name_es": "tigre",
    "name_fr": "tigre",
    "name_hu": "tigris",
    "name_it": "tigre",
    "name_pt": "tigre",
    "name_ca": "tigre",
    "name_ko": "호랑이",
    "name_de": "Tiger",
    "name_uk": "тигр",
    "name_tr": "kaplan"
  },
  {
    "nodeId": 9696,
    "scientific_name": "Puma concolor",
    "name": "puma",
    "parentId": 146712,
    "name_es": "puma",
    "name_fr": "puma",
    "name_hu": "puma",
    "name_it": "puma",
    "name_pt": "puma",
    "name_ca": "puma",
    "name_ko": "퓨마",
    "name_de": "Puma",
    "name_uk": "пума",
    "name_tr": "puma"
  },
  {
    "nodeId": 9704,
    "scientific_name": "Zalophus californianus",
    "name": "sea lion",
    "parentId": 9703,
    "name_es": "león marino",
    "name_fr": "otarie",
    "name_hu": "oroszlánfóka",
    "name_it": "leone marino",
    "name_pt": "leão marinho",
    "name_ca": "lleó marí",
    "name_ko": "바다사자",
    "name_de": "Seelöwe",
    "name_uk": "морський лев",
    "name_tr": "deniz aslanı"
  },
  {
    "nodeId": 9707,
    "scientific_name": "Odobenus rosmarus",
    "name": "walrus",
    "parentId": 9706,
    "name_es": "morsa",
    "name_fr": "morse",
    "name_hu": "rozmár",
    "name_it": "tricheco",
    "name_pt": "morsa",
    "name_ca": "morsa",
    "name_ko": "바다코끼리",
    "name_de": "Walross",
    "name_uk": "морж",
    "name_tr": "mors"
  },
  {
    "nodeId": 9711,
    "scientific_name": "Halichoerus grypus",
    "name": "seal",
    "parentId": 9710,
    "name_es": "foca",
    "name_fr": "phoque",
    "name_hu": "fóka",
    "name_it": "foca",
    "name_pt": "foca",
    "name_ca": "foca",
    "name_ko": "회색물범",
    "name_de": "Kegelrobbe",
    "name_uk": "тюлень",
    "name_tr": "fok"
  },
  {
    "nodeId": 9749,
    "scientific_name": "Delphinapterus leucas",
    "name": "beluga whale",
    "parentId": 9748,
    "name_es": "beluga",
    "name_fr": "béluga",
    "name_hu": "beluga",
    "name_it": "beluga",
    "name_pt": "beluga",
    "name_ca": "beluga",
    "name_ko": "벨루가",
    "name_de": "Belugawal",
    "name_uk": "білуга",
    "name_tr": "beyaz balina"
  },
  {
    "nodeId": 9755,
    "scientific_name": "Physeter catodon",
    "name": "sperm whale",
    "parentId": 9753,
    "name_es": "cachalote",
    "name_fr": "cachalot",
    "name_hu": "nagy ámbráscet",
    "name_it": "capodoglio",
    "name_pt": "cachalote",
    "name_ca": "catxalot",
    "name_ko": "향고래",
    "name_de": "Pottwal",
    "name_uk": "кашалот",
    "name_tr": "ispermeçet balinası"
  },
  {
    "nodeId": 9773,
    "scientific_name": "Megaptera novaeangliae",
    "name": "humpback whale",
    "parentId": 9772,
    "name_es": "ballena jorobada",
    "name_fr": "baleine à bosse",
    "name_hu": "púpos bálna",
    "name_it": "megattera",
    "name_pt": "baleia jubarte",
    "name_ca": "iubarta",
    "name_ko": "혹등고래",
    "name_de": "Buckelwal",
    "name_uk": "горбатий кит",
    "name_tr": "kambur balina"
  },
  {
    "nodeId": 9778,
    "scientific_name": "Trichechus manatus",
    "name": "manatee",
    "parentId": 9776,
    "name_es": "manatí",
    "name_fr": "lamantin",
    "name_hu": "manátusz",
    "name_it": "lamantino",
    "name_pt": "peixe boi",
    "name_ca": "manatí",
    "name_ko": "매너티",
    "name_de": "Seekuh",
    "name_uk": "ламантин",
    "name_tr": "manati"
  },
  {
    "nodeId": 9785,
    "scientific_name": "Loxodonta africana",
    "name": "elephant",
    "parentId": 9784,
    "name_es": "elefante",
    "name_fr": "éléphant",
    "name_hu": "elefánt",
    "name_it": "elefante",
    "name_pt": "elefante",
    "name_ca": "elefant",
    "name_ko": "코끼리",
    "name_de": "Afrikanischer Elefant",
    "name_uk": "слон",
    "name_tr": "Afrika fili"
  },
  {
    "nodeId": 9796,
    "scientific_name": "Equus caballus",
    "name": "horse",
    "parentId": 9789,
    "name_es": "caballo",
    "name_fr": "cheval",
    "name_hu": "ló",
    "name_it": "cavallo",
    "name_pt": "cavalo",
    "name_ca": "cavall",
    "name_ko": "말",
    "name_de": "Pferd",
    "name_uk": "кінь",
    "name_tr": "at"
  },
  {
    "nodeId": 9807,
    "scientific_name": "Ceratotherium simum",
    "name": "rhinoceros",
    "parentId": 9806,
    "name_es": "rinoceronte",
    "name_fr": "rhinocéros",
    "name_hu": "orrszarvú",
    "name_it": "rinoceronte",
    "name_pt": "rinoceronte",
    "name_ca": "rinoceront",
    "name_ko": "코뿔소",
    "name_de": "Nashorn",
    "name_uk": "носоріг",
    "name_tr": "gergedan"
  },
  {
    "nodeId": 9818,
    "scientific_name": "Orycteropus afer",
    "name": "aardvark",
    "parentId": 9817,
    "name_es": "cerdo hormiguero",
    "name_fr": "oryctérope",
    "name_hu": "földimalac",
    "name_it": "oritteropo",
    "name_pt": "porco-formigueiro",
    "name_ca": "porc formiguer",
    "name_ko": "땅돼지",
    "name_de": "Erdferkel",
    "name_uk": "трубкозуб",
    "name_tr": "yer domuzu"
  },
  {
    "nodeId": 9838,
    "scientific_name": "Camelus dromedarius",
    "name": "camel",
    "parentId": 9836,
    "name_es": "camello",
    "name_fr": "dromadaire",
    "name_hu": "egypúpú teve",
    "name_it": "dromedario",
    "name_pt": "camelo",
    "name_ca": "camell",
    "name_ko": "낙타",
    "name_de": "Dromedar",
    "name_uk": "верблюд",
    "name_tr": "deve"
  },
  {
    "nodeId": 9894,
    "scientific_name": "Giraffa camelopardalis",
    "name": "giraffe",
    "parentId": 9893,
    "name_es": "jirafa",
    "name_fr": "girafe",
    "name_hu": "zsiráf",
    "name_it": "giraffa",
    "name_pt": "girafa",
    "name_ca": "girafa",
    "name_ko": "기린",
    "name_de": "Giraffe",
    "name_uk": "жирафа",
    "name_tr": "zürafa"
  },
  {
    "nodeId": 9901,
    "scientific_name": "Bison bison",
    "name": "bison",
    "parentId": 9900,
    "name_es": "bisonte",
    "name_fr": "bison",
    "name_hu": "bölény",
    "name_it": "bisonte",
    "name_pt": "bisão",
    "name_ca": "bisó",
    "name_ko": "들소",
    "name_de": "Bison",
    "name_uk": "бізон",
    "name_tr": "bizon"
  },
  {
    "nodeId": 9913,
    "scientific_name": "Bos taurus",
    "name": "cattle",
    "parentId": 9903,
    "name_es": "vaca",
    "name_fr": "vache",
    "name_hu": "tehén",
    "name_it": "mucca",
    "name_pt": "gado",
    "name_ca": "bou",
    "name_ko": "소",
    "name_de": "Rind",
    "name_uk": "корова",
    "name_tr": "sığır"
  },
  {
    "nodeId": 9940,
    "scientific_name": "Ovis aries",
    "name": "sheep",
    "parentId": 9935,
    "name_es": "oveja",
    "name_fr": "mouton",
    "name_hu": "juh",
    "name_it": "pecora",
    "name_pt": "ovelha",
    "name_ca": "ovella",
    "name_ko": "양",
    "name_de": "Schaf",
    "name_uk": "вівця",
    "name_tr": "koyun"
  },
  {
    "nodeId": 9974,
    "scientific_name": "Manis javanica",
    "name": "pangolin",
    "parentId": 9973,
    "name_es": "pangolín",
    "name_fr": "pangolin",
    "name_hu": "tobzoska",
    "name_it": "pangolino",
    "name_pt": "pangolim",
    "name_ca": "pangolí",
    "name_ko": "천산갑",
    "name_de": "Malaiisches Schuppentier (Pangolin)",
    "name_uk": "панголін",
    "name_tr": "pangolin"
  },
  {
    "nodeId": 10036,
    "scientific_name": "Mesocricetus auratus",
    "name": "hamster",
    "parentId": 10035,
    "name_es": "hámster",
    "name_fr": "hamster",
    "name_hu": "hörcsög",
    "name_it": "criceto",
    "name_pt": "hamster",
    "name_ca": "hàmster",
    "name_ko": "햄스터",
    "name_de": "Goldhamster",
    "name_uk": "хом'як",
    "name_tr": "hamster"
  },
  {
    "nodeId": 10047,
    "scientific_name": "Meriones unguiculatus",
    "name": "gerbil",
    "parentId": 10046,
    "name_es": "gerbil",
    "name_fr": "gerbille",
    "name_hu": "futóegér",
    "name_it": "gerbillo",
    "name_pt": "gerbil",
    "name_ca": "jerbú",
    "name_ko": "저빌",
    "name_de": "Wüstenrennmaus",
    "name_uk": "піщанка",
    "name_tr": "gerbil"
  },
  {
    "nodeId": 10090,
    "scientific_name": "Mus musculus",
    "name": "mouse",
    "parentId": 862507,
    "name_es": "ratón",
    "name_fr": "souris",
    "name_hu": "egér",
    "name_it": "topo",
    "name_pt": "camundongo",
    "name_ca": "ratolí",
    "name_ko": "생쥐",
    "name_de": "Hausmaus",
    "name_uk": "миша",
    "name_tr": "fare"
  },
  {
    "nodeId": 10138,
    "scientific_name": "Hystrix africaeaustralis",
    "name": "porcupine",
    "parentId": 10136,
    "name_es": "puerco espín",
    "name_fr": "porc-épic",
    "name_hu": "tarajos sül",
    "name_it": "istrice",
    "name_pt": "porco espinho",
    "name_ca": "porc espí",
    "name_ko": "호저",
    "name_de": "Stachelschwein",
    "name_uk": "дикобраз",
    "name_tr": "oklu kirpi"
  },
  {
    "nodeId": 12983,
    "scientific_name": "Cacatua goffiniana",
    "name": "cockatoo",
    "parentId": 12981,
    "name_es": "cocotilla",
    "name_fr": "cacatoès",
    "name_hu": "kakadu",
    "name_it": "cacatua",
    "name_pt": "cacatua",
    "name_ca": "cacatua de les tanimbar",
    "name_ko": "코카투",
    "name_de": "Kakadu",
    "name_uk": "какаду",
    "name_tr": "kakadu"
  },
  {
    "nodeId": 13037,
    "scientific_name": "Danaus plexippus",
    "name": "monarch butterfly",
    "parentId": 151542,
    "name_es": "mariposa monarca",
    "name_fr": "monarque",
    "name_hu": "pompás királylepke",
    "name_it": "farfalla monarca",
    "name_pt": "borboleta monarca",
    "name_ca": "papallona monarca",
    "name_ko": "제왕나비",
    "name_de": "Monarchfalter",
    "name_uk": "метелик монарх",
    "name_tr": "kral kelebeği"
  },
  {
    "nodeId": 13125,
    "scientific_name": "Lynx lynx",
    "name": "lynx",
    "parentId": 13124,
    "name_es": "lince",
    "name_fr": "lynx commun",
    "name_hu": "hiúz",
    "name_it": "lince europea",
    "name_pt": "lince",
    "name_ca": "linx nòrdic",
    "name_ko": "스라소니",
    "name_de": "Luchs",
    "name_uk": "рись",
    "name_tr": "bayağı vaşak"
  },
  {
    "nodeId": 13180,
    "scientific_name": "Nymphicus hollandicus",
    "name": "cockatiel",
    "parentId": 13179,
    "name_es": "cacatúa",
    "name_fr": "calopsitte",
    "name_hu": "nimfapapagáj",
    "name_it": "calopsita",
    "name_pt": "calopsita",
    "name_ca": "cacatua nimfa",
    "name_ko": "왕관앵무",
    "name_de": "Nymphensittich",
    "name_uk": "корелла",
    "name_tr": "sultan papağanı"
  },
  {
    "nodeId": 13397,
    "scientific_name": "Carcharodon carcharias",
    "name": "great white shark",
    "parentId": 13396,
    "name_es": "gran tiburón blanco",
    "name_fr": "grand requin blanc",
    "name_hu": "fehér cápa",
    "name_it": "squalo bianco",
    "name_pt": "tubarão branco",
    "name_ca": "tauró blanc",
    "name_ko": "백상아리",
    "name_de": "Weißer Hai",
    "name_uk": "біла акула",
    "name_tr": "büyük beyaz köpek balığı"
  },
  {
    "nodeId": 13686,
    "scientific_name": "Solenopsis invicta",
    "name": "fire ant",
    "parentId": 13685,
    "name_es": "hormiga de fuego",
    "name_fr": "fourmi de feu",
    "name_hu": " tűzhangya",
    "name_it": "formica di fuoco",
    "name_pt": "formiga de fogo",
    "name_ca": "formiga de foc",
    "name_ko": "붉은불개미",
    "name_de": "Feuerameise",
    "name_uk": "вогняна мураха",
    "name_tr": "ateş karıncası"
  },
  {
    "nodeId": 27675,
    "scientific_name": "Choloepus didactylus",
    "name": "two-toed sloth",
    "parentId": 9357,
    "name_es": "perezoso de dos dedos",
    "name_fr": "paresseux à deux doigts",
    "name_hu": "kétujjú lajhár",
    "name_it": "bradipo didattilo",
    "name_pt": "preguiça-real",
    "name_ca": "peresós",
    "name_ko": "나무늘보",
    "name_de": "Zweifingerfaultier",
    "name_uk": "двопалий лінивець",
    "name_tr": "tembel hayvan"
  },
  {
    "nodeId": 27794,
    "scientific_name": "Dermochelys coriacea",
    "name": "sea turtle",
    "parentId": 27793,
    "name_es": "tortuga marina",
    "name_fr": "tortue luth",
    "name_hu": "kérgesteknős",
    "name_it": "tartaruga liuto",
    "name_pt": "tartaruga de couro",
    "name_ca": "tortuga llaüt",
    "name_ko": "장수거북",
    "name_de": "Lederschildkröte",
    "name_uk": "морська черепаха",
    "name_tr": "deniz kaplumbağası"
  },
  {
    "nodeId": 28701,
    "scientific_name": "Fratercula arctica",
    "name": "puffin",
    "parentId": 28700,
    "name_es": "frailecillo",
    "name_fr": "macareux",
    "name_hu": "lunda",
    "name_it": "pulcinella di mare",
    "name_pt": "fradinho",
    "name_ca": "fraret",
    "name_ko": "코뿔바다오리",
    "name_de": "Papageitaucher",
    "name_uk": "тупик",
    "name_tr": "deniz papağanı"
  },
  {
    "nodeId": 28727,
    "scientific_name": "Cyanocitta cristata",
    "name": "blue jay",
    "parentId": 28726,
    "name_es": "arrendajo azul",
    "name_fr": "geai bleu",
    "name_hu": "kék szajkó",
    "name_it": "ghiandaia azzurra",
    "name_pt": "gaio-azul",
    "name_ca": "gaig nord-americà",
    "name_ko": "파랑어치",
    "name_de": "Blauhäher",
    "name_uk": "сойка",
    "name_tr": "alakarga"
  },
  {
    "nodeId": 29073,
    "scientific_name": "Ursus maritimus",
    "name": "polar bear",
    "parentId": 9639,
    "name_es": "oso polar",
    "name_fr": "ours blanc",
    "name_hu": "jegesmedve",
    "name_it": "orso polare",
    "name_pt": "urso polar",
    "name_ca": "os polar",
    "name_ko": "북극곰",
    "name_de": "Eisbär",
    "name_uk": "полярний ведмідь",
    "name_tr": "kutup ayısı"
  },
  {
    "nodeId": 29139,
    "scientific_name": "Vombatus ursinus",
    "name": "wombat",
    "parentId": 29138,
    "name_es": "wombat",
    "name_fr": "wombat",
    "name_hu": "vombat",
    "name_it": "vombato",
    "name_pt": "vombate",
    "name_ca": "uombat",
    "name_ko": "웜뱃",
    "name_de": "Wombat",
    "name_uk": "вомбат",
    "name_tr": "vombat"
  },
  {
    "nodeId": 29159,
    "scientific_name": "Magallana gigas",
    "name": "oyster",
    "parentId": 6564,
    "name_es": "ostra",
    "name_fr": "huître",
    "name_hu": "osztriga",
    "name_it": "ostrica",
    "name_pt": "ostra",
    "name_ca": "ostra",
    "name_ko": "굴",
    "name_de": "Auster",
    "name_uk": "устриця",
    "name_tr": "istiridye"
  },
  {
    "nodeId": 30213,
    "scientific_name": "Vespula pensylvanica",
    "name": "wasp",
    "parentId": 7451,
    "name_es": "avispa",
    "name_fr": "guêpe",
    "name_hu": "darázs",
    "name_it": "vespa",
    "name_pt": "vespa",
    "name_ca": "vespa",
    "name_ko": "말벌",
    "name_de": "Wespe",
    "name_uk": "оса",
    "name_tr": "yaban arısı"
  },
  {
    "nodeId": 30538,
    "scientific_name": "Vicugna pacos",
    "name": "alpaca",
    "parentId": 30539,
    "name_es": "alpaca",
    "name_fr": "alpaga",
    "name_hu": "alpaka",
    "name_it": "alpaca",
    "name_pt": "alpaca",
    "name_ca": "alpaca",
    "name_ko": "알파카",
    "name_de": "Alpaka",
    "name_uk": "альпака",
    "name_tr": "alpaka"
  },
  {
    "nodeId": 30548,
    "scientific_name": "Mephitis mephitis",
    "name": "skunk",
    "parentId": 30546,
    "name_es": "zorrillo",
    "name_fr": "moufette",
    "name_hu": "bűzös borz",
    "name_it": "moffetta",
    "name_pt": "gambá",
    "name_ca": "mofeta",
    "name_ko": "스컹크",
    "name_de": "Stinktier",
    "name_uk": "скунс",
    "name_tr": "kokarca"
  },
  {
    "nodeId": 30554,
    "scientific_name": "Taxidea taxus",
    "name": "badger",
    "parentId": 30553,
    "name_es": "tejón",
    "name_fr": "blaireau",
    "name_hu": "borz",
    "name_it": "tasso",
    "name_pt": "texugo",
    "name_ca": "teixó",
    "name_ko": "오소리",
    "name_de": "Dachs",
    "name_uk": "борсук",
    "name_tr": "porsuk"
  },
  {
    "nodeId": 32536,
    "scientific_name": "Acinonyx jubatus",
    "name": "cheetah",
    "parentId": 32535,
    "name_es": "guepardo",
    "name_fr": "guépard",
    "name_hu": "gepárd",
    "name_it": "ghepardo",
    "name_pt": "guepardo",
    "name_ca": "guepard",
    "name_ko": "치타",
    "name_de": "Gepard",
    "name_uk": "гепард",
    "name_tr": "çita"
  },
  {
    "nodeId": 32538,
    "scientific_name": "Leopardus pardalis",
    "name": "ocelot",
    "parentId": 46841,
    "name_es": "ocelote",
    "name_fr": "ocelot",
    "name_hu": "ocelot",
    "name_it": "ocelot",
    "name_pt": "jaguatirica",
    "name_ca": "ocelot",
    "name_ko": "오셀롯",
    "name_de": "Ozelot",
    "name_uk": "оцелот",
    "name_tr": "oselo"
  },
  {
    "nodeId": 34882,
    "scientific_name": "Enhydra lutris",
    "name": "sea otter",
    "parentId": 34881,
    "name_es": "nutria de mar",
    "name_fr": "loutre de mer",
    "name_hu": "tengeri vidra",
    "name_it": "lontra di mare",
    "name_pt": "lontra-marinha",
    "name_ca": "llúdriga marina",
    "name_ko": "해달",
    "name_de": "Seeotter",
    "name_uk": "видра",
    "name_tr": "deniz samuru"
  },
  {
    "nodeId": 36312,
    "scientific_name": "Hynobius retardatus",
    "name": "salamander",
    "parentId": 1527437,
    "name_es": "salamandra",
    "name_fr": "salamandre",
    "name_hu": "szalamander",
    "name_it": "salamandra",
    "name_pt": "salamandra",
    "name_ca": "salamandra",
    "name_ko": "도룡뇽",
    "name_de": "Salamander",
    "name_uk": "саламандра",
    "name_tr": "semender"
  },
  {
    "nodeId": 37032,
    "scientific_name": "Suricata suricatta",
    "name": "meerkat",
    "parentId": 37031,
    "name_es": "suricata",
    "name_fr": "suricate",
    "name_hu": "szurikáta",
    "name_it": "suricato",
    "name_pt": "suricato",
    "name_ca": "suricata",
    "name_ko": "미어캣",
    "name_de": "Erdmännchen",
    "name_uk": "сурикат",
    "name_tr": "mirket"
  },
  {
    "nodeId": 37189,
    "scientific_name": "Hippotragus niger",
    "name": "antelope",
    "parentId": 37184,
    "name_es": "antílope",
    "name_fr": "hippotrague",
    "name_hu": "antilop",
    "name_it": "antilope",
    "name_pt": "antílope",
    "name_ca": "antílop",
    "name_ko": "검은영양",
    "name_de": "Antilope",
    "name_uk": "антилопа",
    "name_tr": "dev samur antilobu"
  },
  {
    "nodeId": 37295,
    "scientific_name": "Cebus olivaceus",
    "name": "capuchin",
    "parentId": 9513,
    "name_es": "capuchino",
    "name_fr": "capucin",
    "name_hu": "csuklyásmajom",
    "name_it": "scimmia cappuccina",
    "name_pt": "macaco prego",
    "name_ca": "caputxí",
    "name_ko": "카푸친원숭이",
    "name_de": "Kapuzineraffe",
    "name_uk": "капуцин",
    "name_tr": "kapuçin maymunu"
  },
  {
    "nodeId": 37610,
    "scientific_name": "Erithacus rubecula",
    "name": "robin",
    "parentId": 36283,
    "name_es": "petirrojo",
    "name_fr": "rouge-gorge",
    "name_hu": "vörösbegy",
    "name_it": "pettirosso",
    "name_pt": "tordo",
    "name_ca": "pit-roig",
    "name_ko": "미국 지빠귀",
    "name_de": "Rotkehlchen",
    "name_uk": "малиновка",
    "name_tr": "kızılgerdan"
  },
  {
    "nodeId": 37751,
    "scientific_name": "Gazella dorcas",
    "name": "gazelle",
    "parentId": 9933,
    "name_es": "gacela",
    "name_fr": "gazelle",
    "name_hu": "gazella",
    "name_it": "gazzella",
    "name_pt": "gazela",
    "name_ca": "gasela",
    "name_ko": "가젤",
    "name_de": "Gazelle",
    "name_uk": "газель",
    "name_tr": "gazel"
  },
  {
    "nodeId": 38626,
    "scientific_name": "Phascolarctos cinereus",
    "name": "koala",
    "parentId": 38625,
    "name_es": "coala",
    "name_fr": "koala",
    "name_hu": "koala",
    "name_it": "koala",
    "name_pt": "coala",
    "name_ca": "coala",
    "name_ko": "코알라",
    "name_de": "Koala",
    "name_uk": "коала",
    "name_tr": "koala"
  },
  {
    "nodeId": 40151,
    "scientific_name": "Monodon monoceros",
    "name": "narwhal",
    "parentId": 40150,
    "name_es": "narval",
    "name_fr": "narval",
    "name_hu": "narvál",
    "name_it": "narvalo",
    "name_pt": "narval",
    "name_ca": "narval",
    "name_ko": "일각고래",
    "name_de": "Narwal",
    "name_uk": "нарвал",
    "name_tr": "narval"
  },
  {
    "nodeId": 42514,
    "scientific_name": "Pygocentrus nattereri",
    "name": "piranha",
    "parentId": 42513,
    "name_es": "piraña",
    "name_fr": "piranha",
    "name_hu": "pirája",
    "name_it": "piragna",
    "name_pt": "piranha",
    "name_ca": "piranya",
    "name_ko": "피라냐",
    "name_de": "Piranha",
    "name_uk": "піранья",
    "name_tr": "pirana"
  },
  {
    "nodeId": 48849,
    "scientific_name": "Passer domesticus",
    "name": "sparrow",
    "parentId": 9159,
    "name_es": "gorrión",
    "name_fr": "moineau",
    "name_hu": "veréb",
    "name_it": "passerotto",
    "name_pt": "pardal",
    "name_ca": "pardal",
    "name_ko": "참새",
    "name_de": "Spatz",
    "name_uk": "горобець",
    "name_tr": "serçe"
  },
  {
    "nodeId": 9375,
    "scientific_name": "Talpa europaea",
    "name": "mole",
    "parentId": 9374,
    "name_es": "topo",
    "name_fr": "taupe",
    "name_hu": "vakond",
    "name_it": "talpa",
    "name_pt": "toupeira",
    "name_ca": "talp",
    "name_ko": "두더지",
    "name_de": "Maulwurf",
    "name_uk": "крiт",
    "name_tr": "köstebek"
  },
  {
    "nodeId": 51338,
    "scientific_name": "Castor canadensis",
    "name": "beaver",
    "parentId": 10184,
    "name_es": "castor",
    "name_fr": "castor",
    "name_hu": "hód",
    "name_it": "castoro",
    "name_pt": "castor",
    "name_ca": "castor",
    "name_ko": "비버",
    "name_de": "Biber",
    "name_uk": "бобер",
    "name_tr": "kunduz"
  },
  {
    "nodeId": 51908,
    "scientific_name": "Aratinga nenday",
    "name": "parakeet",
    "parentId": 12945,
    "name_es": "periquito",
    "name_fr": "perruche",
    "name_hu": "aratinga",
    "name_it": "parrocchetto",
    "name_pt": "periquito",
    "name_ca": "periquito",
    "name_ko": "코뉴어 앵무새",
    "name_de": "Sittich",
    "name_uk": "папуга",
    "name_tr": "muhabbet kuşu"
  },
  {
    "nodeId": 51949,
    "scientific_name": "Oophaga histrionica",
    "name": "poison frog",
    "parentId": 1004435,
    "name_es": "rana venenosa",
    "name_fr": "dendrobate",
    "name_hu": "nyílméregbéka",
    "name_it": "raganella velenosa",
    "name_pt": "rã venenosa",
    "name_ca": "granota arlequí",
    "name_ko": "독화살개구리",
    "name_de": "Pfeilgiftfrosch",
    "name_uk": "отруйна жаба",
    "name_tr": "zehirli ok kurbağası"
  },
  {
    "nodeId": 52644,
    "scientific_name": "Haliaeetus leucocephalus",
    "name": "bald eagle",
    "parentId": 8968,
    "name_es": "águila calva",
    "name_fr": "pygargue",
    "name_hu": "fehérfejű rétisas",
    "name_it": "aquila calva",
    "name_pt": "águia-careca",
    "name_ca": "àguila marina",
    "name_ko": "흰머리수리",
    "name_de": "Weißkopfseeadler",
    "name_uk": "білоголовий орлан",
    "name_tr": "kel kartal"
  },
  {
    "nodeId": 3370370,
    "scientific_name": "Neogale frenata",
    "name": "weasel",
    "parentId": 2902005,
    "name_es": "comadreja",
    "name_fr": "belette",
    "name_hu": "menyét",
    "name_it": "donnola",
    "name_pt": "doninha",
    "name_ca": "mostela",
    "name_ko": "족제비",
    "name_de": "Wiesel",
    "name_uk": "ласка",
    "name_tr": "uzun kuyruklu gelincik"
  },
  {
    "nodeId": 56313,
    "scientific_name": "Tyto alba",
    "name": "barn owl",
    "parentId": 56312,
    "name_es": "lechuza",
    "name_fr": "chouette effraie",
    "name_hu": "gyöngybagoly",
    "name_it": "barbagianni",
    "name_pt": "coruja-das-torres",
    "name_ca": "òliba",
    "name_ko": "올빼미",
    "name_de": "Schleiereule",
    "name_uk": "сова",
    "name_tr": "peçeli baykuş"
  },
  {
    "nodeId": 56781,
    "scientific_name": "Corvus corax",
    "name": "raven",
    "parentId": 30420,
    "name_es": "cuervo",
    "name_fr": "grand corbeau",
    "name_hu": "holló",
    "name_it": "corvo imperiale",
    "name_pt": "corvo",
    "name_ca": "corb",
    "name_ko": "큰까마귀",
    "name_de": "Rabe",
    "name_uk": "ворон",
    "name_tr": "kuzgun"
  },
  {
    "nodeId": 57247,
    "scientific_name": "Psittacus erithacus",
    "name": "grey parrot",
    "parentId": 13239,
    "name_es": "loro gris",
    "name_fr": "gris du gabon",
    "name_hu": "szürkepapagáj",
    "name_it": "pappagallo cenerino",
    "name_pt": "papagaio-cinzento",
    "name_ca": "lloro gris",
    "name_ko": "회색앵무",
    "name_de": "Graupapagei",
    "name_uk": "сірий папуга",
    "name_tr": "gri papağan"
  },
  {
    "nodeId": 60713,
    "scientific_name": "Mimus polyglottos",
    "name": "mockingbird",
    "parentId": 58200,
    "name_es": "sinsonte",
    "name_fr": "moqueur",
    "name_hu": "gezerigó",
    "name_it": "mimo settentrionale",
    "name_pt": "tordo-imitador",
    "name_ca": "mim políglota",
    "name_ko": "흉내지빠귀",
    "name_de": "Spottdrossel",
    "name_uk": "пересмішник",
    "name_tr": "alaycı kuş"
  },
  {
    "nodeId": 61384,
    "scientific_name": "Lynx rufus",
    "name": "bobcat",
    "parentId": 13124,
    "name_es": "gato montés",
    "name_fr": "lynx roux",
    "name_hu": "vörös hiúz",
    "name_it": "lince rossa",
    "name_pt": "lince-pardo",
    "name_ca": "linx roig",
    "name_ko": "붉은스라소니",
    "name_de": "Rotluchs",
    "name_uk": "руда рись",
    "name_tr": "doru vaşak"
  },
  {
    "nodeId": 9700,
    "scientific_name": "Herpestes ichneumon",
    "name": "mongoose",
    "parentId": 9699,
    "name_es": "mangosta",
    "name_fr": "mangouste",
    "name_hu": "mongúz",
    "name_it": "mangusta",
    "name_pt": "mangusto",
    "name_ca": "mangosta",
    "name_ko": "몽구스",
    "name_de": "Mungo",
    "name_uk": "мангуст",
    "name_tr": "firavun faresi"
  },
  {
    "nodeId": 61853,
    "scientific_name": "Nomascus leucogenys",
    "name": "gibbon",
    "parentId": 325165,
    "name_es": "gibón",
    "name_fr": "gibbon",
    "name_hu": "gibbon",
    "name_it": "gibbone",
    "name_pt": "gibão",
    "name_ca": "gibó",
    "name_ko": "긴팔원숭이",
    "name_de": "Gibbon",
    "name_uk": "гібон",
    "name_tr": "gibon"
  },
  {
    "nodeId": 76717,
    "scientific_name": "Lontra canadensis",
    "name": "river otter",
    "parentId": 71112,
    "name_es": "nutria de río",
    "name_fr": "loutre de rivière",
    "name_hu": "vidra",
    "name_it": "lontra canadese",
    "name_pt": "lontra norte-mericana",
    "name_ca": "llúdriga",
    "name_ko": "수달",
    "name_de": "Flussotter",
    "name_uk": "річкова видра",
    "name_tr": "su samuru"
  },
  {
    "nodeId": 79627,
    "scientific_name": "Eudyptes chrysolophus",
    "name": "macaroni penguin",
    "parentId": 9235,
    "name_es": "pingüino macaroni",
    "name_fr": "gorfou sauteur",
    "name_hu": "bóbitás pingvin",
    "name_it": "pinguino dalla fronte dorata",
    "name_pt": "pinguim saltador",
    "name_ca": "pingüí crestadaurat",
    "name_ko": "마카로니펭귄",
    "name_de": "Goldschopfpinguin",
    "name_uk": "макаронний пінгвін",
    "name_tr": "makaroni pengueni"
  },
  {
    "nodeId": 84074,
    "scientific_name": "Cyclopes didactylus",
    "name": "anteater",
    "parentId": 84073,
    "name_es": "oso hormiguero",
    "name_fr": "myrmidon",
    "name_hu": "hangyász",
    "name_it": "formichiere",
    "name_pt": "tamanduaí",
    "name_ca": "os formiguer",
    "name_ko": "개미핥기",
    "name_de": "Zwergameisenbär",
    "name_uk": "мурахоїд",
    "name_tr": "karıncayiyen"
  },
  {
    "nodeId": 85066,
    "scientific_name": "Corvus brachyrhynchos",
    "name": "crow",
    "parentId": 30420,
    "name_es": "corneja",
    "name_fr": "corneille",
    "name_hu": "varjú",
    "name_it": "cornacchia",
    "name_pt": "gralha americana",
    "name_ca": "corb americà",
    "name_ko": "까마귀",
    "name_de": "Krähe",
    "name_uk": "ворона",
    "name_tr": "karga"
  },
  {
    "nodeId": 89248,
    "scientific_name": "Equus quagga",
    "name": "zebra",
    "parentId": 9789,
    "name_es": "cebra",
    "name_fr": "zèbre",
    "name_hu": "zebra",
    "name_it": "zebra",
    "name_pt": "zebra",
    "name_ca": "zebra",
    "name_ko": "얼룩말",
    "name_de": "Zebra",
    "name_uk": "зебра",
    "name_tr": "zebra"
  },
  {
    "nodeId": 89462,
    "scientific_name": "Bubalus bubalis",
    "name": "water buffalo",
    "parentId": 9918,
    "name_es": "búfalo de agua",
    "name_fr": "buffle",
    "name_hu": "vízibivaly",
    "name_it": "bufalo",
    "name_pt": "búfalo",
    "name_ca": "búfal",
    "name_ko": "물소",
    "name_de": "Wasserbüffel",
    "name_uk": "буйвол",
    "name_tr": "Asya mandası"
  },
  {
    "nodeId": 30640,
    "scientific_name": "Sciurus carolinensis",
    "name": "squirrel",
    "parentId": 10001,
    "name_es": "ardilla",
    "name_fr": "écureuil gris",
    "name_hu": "mókus",
    "name_it": "scoiattolo grigio",
    "name_pt": "esquilo",
    "name_ca": "esquirol",
    "name_ko": "청설모",
    "name_de": "Eichhörnchen",
    "name_uk": "білка",
    "name_tr": "sincap"
  },
  {
    "nodeId": 254707,
    "scientific_name": "Hylopetes nigripes",
    "name": "flying squirrel",
    "parentId": 100944,
    "name_es": "ardilla voladora",
    "name_fr": "écureuil volant",
    "name_hu": "repülőmókus",
    "name_it": "scoiattolo volante",
    "name_pt": "esquilo voador",
    "name_ca": "esquirol volador",
    "name_ko": "날다람쥐",
    "name_de": "Gleithörnchen",
    "name_uk": "білка-летяга",
    "name_tr": "uçan sincap"
  },
  {
    "nodeId": 100937,
    "scientific_name": "Papio papio",
    "name": "baboon",
    "parentId": 9554,
    "name_es": "babuino",
    "name_fr": "babouin",
    "name_hu": "pávián",
    "name_it": "babbuino",
    "name_pt": "babuíno",
    "name_ca": "papió",
    "name_ko": "개코원숭이",
    "name_de": "Pavian",
    "name_uk": "бабуїн",
    "name_tr": "babun"
  },
  {
    "nodeId": 104421,
    "scientific_name": "Camponotus floridanus",
    "name": "carpenter ant",
    "parentId": 13390,
    "name_es": "hormiga carpintera",
    "name_fr": "fourmi charpentière",
    "name_hu": "lóhangya",
    "name_it": "formica carpentiere",
    "name_pt": "formiga carpinteira",
    "name_ca": "formiga fustera",
    "name_ko": "왕개미",
    "name_de": "Zimmermannsameise",
    "name_uk": "мураха",
    "name_tr": "marangoz karınca"
  },
  {
    "nodeId": 109280,
    "scientific_name": "Hippocampus comes",
    "name": "seahorse",
    "parentId": 72046,
    "name_es": "caballito de mar",
    "name_fr": "hippocampe",
    "name_hu": "tengeri csikó",
    "name_it": "cavalluccio marino",
    "name_pt": "cavalo marinho",
    "name_ca": "cavallet de mar",
    "name_ko": "해마",
    "name_de": "Seepferdchen",
    "name_uk": "морський коник",
    "name_tr": "denizatı"
  },
  {
    "nodeId": 132113,
    "scientific_name": "Bombus impatiens",
    "name": "bumble bee",
    "parentId": 144703,
    "name_es": "abejorro",
    "name_fr": "bourdon",
    "name_hu": "poszméh",
    "name_it": "bombo",
    "name_pt": "mamangava",
    "name_ca": "borinot",
    "name_ko": "뒤영벌",
    "name_de": "Hummel",
    "name_uk": "джміль",
    "name_tr": "bombus arısı"
  },
  {
    "nodeId": 135631,
    "scientific_name": "Leptotila verreauxi",
    "name": "dove",
    "parentId": 115655,
    "name_es": "paloma blanca",
    "name_fr": "colombe",
    "name_hu": "gerle",
    "name_it": "colomba",
    "name_pt": "pomba",
    "name_ca": "colom feréstec",
    "name_ko": "비둘기",
    "name_de": "Taube",
    "name_uk": "горлиця",
    "name_tr": "kumru"
  },
  {
    "nodeId": 158814,
    "scientific_name": "Terrapene carolina",
    "name": "box turtle",
    "parentId": 85610,
    "name_es": "tortuga de caja",
    "name_fr": "tortue boîte",
    "name_hu": "dobozteknős",
    "name_it": "testuggine",
    "name_pt": "tartaruga de caixa",
    "name_ca": "tortuga de caixa",
    "name_ko": "상자거북",
    "name_de": "Dosenschildkröte",
    "name_uk": "коробчата черепаха",
    "name_tr": "kutu kaplumbağası"
  },
  {
    "nodeId": 161767,
    "scientific_name": "Amphiprion percula",
    "name": "clownfish",
    "parentId": 80969,
    "name_es": "pez payaso",
    "name_fr": "poisson-clown",
    "name_hu": "bohóchal",
    "name_it": "pesce pagliaccio",
    "name_pt": "peixe palhaço",
    "name_ca": "peix pallasso",
    "name_ko": "흰동가리",
    "name_de": "Clownfisch",
    "name_uk": "риба-клоун",
    "name_tr": "palyaço balığı"
  },
  {
    "nodeId": 176946,
    "scientific_name": "Python bivittatus",
    "name": "burmese python",
    "parentId": 37579,
    "name_es": "pitón birmano",
    "name_fr": "python birman",
    "name_hu": "tigrispiton",
    "name_it": "pitone birmano",
    "name_pt": "píton birmanesa",
    "name_ca": "pitó de birmania",
    "name_ko": "버마비단뱀",
    "name_de": "Birmanische Python",
    "name_uk": "бірманський пітон",
    "name_tr": "burma pitonu"
  },
  {
    "nodeId": 218467,
    "scientific_name": "Centruroides sculpturatus",
    "name": "bark scorpion",
    "parentId": 6875,
    "name_es": "escorpión",
    "name_fr": "scorpion",
    "name_hu": "skorpió",
    "name_it": "scorpione",
    "name_pt": "escorpião",
    "name_ca": "escorpí",
    "name_ko": "전갈",
    "name_de": "Skorpion",
    "name_uk": "скорпіон",
    "name_tr": "ağaç kabuğu akrebi"
  },
  {
    "nodeId": 37607,
    "scientific_name": "Pyrrhula pyrrhula",
    "name": "finch",
    "parentId": 37606,
    "name_es": "pinzón",
    "name_fr": "bouvreuil",
    "name_hu": "pinty",
    "name_it": "ciuffolotto",
    "name_pt": "dom-fafe",
    "name_ca": "pinsà borroner",
    "name_ko": "핀치새",
    "name_de": "Gimpel",
    "name_uk": "зяблик",
    "name_tr": "ispinoz"
  },
  {
    "nodeId": 262124,
    "scientific_name": "Hemiphaga novaeseelandiae",
    "name": "pigeon",
    "parentId": 262123,
    "name_es": "paloma",
    "name_fr": "pigeon",
    "name_hu": "galamb",
    "name_it": "piccione",
    "name_pt": "pomba kereru",
    "name_ca": "colom",
    "name_ko": "집비둘기",
    "name_de": "Kererū",
    "name_uk": "голуб",
    "name_tr": "güvercin"
  },
  {
    "nodeId": 301843,
    "scientific_name": "Lygodactylus capensis",
    "name": "gecko",
    "parentId": 57063,
    "name_es": "geco",
    "name_fr": "gecko",
    "name_hu": "gekko",
    "name_it": "geco",
    "name_pt": "lagartixa",
    "name_ca": "dragó",
    "name_ko": "게코도마뱀",
    "name_de": "Kapgecko",
    "name_uk": "гекон",
    "name_tr": "geko"
  },
  {
    "nodeId": 308060,
    "scientific_name": "Apteryx rowi",
    "name": "kiwi",
    "parentId": 8821,
    "name_es": "kiwi",
    "name_fr": "kiwi",
    "name_hu": "kiwi",
    "name_it": "kiwi",
    "name_pt": "kiwi",
    "name_ca": "kiwi",
    "name_ko": "키위",
    "name_de": "Kiwi",
    "name_uk": "ківі",
    "name_tr": "kivi"
  },
  {
    "nodeId": 340076,
    "scientific_name": "Chaetophractus vellerosus",
    "name": "armadillo",
    "parentId": 29079,
    "name_es": "armadillo",
    "name_fr": "tatou",
    "name_hu": "armadilló",
    "name_it": "armadillo",
    "name_pt": "tatu",
    "name_ca": "armadillo",
    "name_ko": "아르마딜로",
    "name_de": "Gürteltier",
    "name_uk": "броненосець",
    "name_tr": "armadillo"
  },
  {
    "nodeId": 371907,
    "scientific_name": "Bubo scandiacus",
    "name": "snowy owl",
    "parentId": 30460,
    "name_es": "buho nevado",
    "name_fr": "harfang des neiges",
    "name_hu": "hóbagoly",
    "name_it": "civetta delle nevi",
    "name_pt": "coruja das neves",
    "name_ca": "duc blanc",
    "name_ko": "흰올빼미",
    "name_de": "Schnee-Eule",
    "name_uk": "полярна сова",
    "name_tr": "kar baykuşu"
  },
  {
    "nodeId": 383689,
    "scientific_name": "Luscinia megarhynchos",
    "name": "nightingale",
    "parentId": 52791,
    "name_es": "ruiseñor",
    "name_fr": "rossignol",
    "name_hu": "fülemüle",
    "name_it": "usignolo",
    "name_pt": "rouxinol",
    "name_ca": "rossinyol",
    "name_ko": "밤꾀꼬리",
    "name_de": "Nachtigall",
    "name_uk": "соловей",
    "name_tr": "bülbül"
  },
  {
    "nodeId": 494514,
    "scientific_name": "Vulpes lagopus",
    "name": "arctic fox",
    "parentId": 9625,
    "name_es": "zorro ártico",
    "name_fr": "renard polaire",
    "name_hu": "sarki róka",
    "name_it": "volpe artica",
    "name_pt": "raposa do ártico",
    "name_ca": "guineu àrtica",
    "name_ko": "북극여우",
    "name_de": "Polarfuchs",
    "name_uk": "песець",
    "name_tr": "kar tilkisi"
  },
  {
    "nodeId": 505845,
    "scientific_name": "Acerodon jubatus",
    "name": "fruit bat",
    "parentId": 58056,
    "name_es": "murciélago de la fruta",
    "name_fr": "roussette",
    "name_hu": "repülőkutya",
    "name_it": "pipistrello della frutta",
    "name_pt": "morcego da fruta",
    "name_ca": "guineu voladora",
    "name_ko": "과일박쥐",
    "name_de": "Flughund",
    "name_uk": "фруктовий кажан",
    "name_tr": "meyve yarasası"
  },
  {
    "nodeId": 1037346,
    "scientific_name": "Accipiter gundlachi",
    "name": "hawk",
    "parentId": 8956,
    "name_es": "gavilán",
    "name_fr": "épervier",
    "name_hu": "héja",
    "name_it": "sparviere",
    "name_pt": "gavião",
    "name_ca": "astor",
    "name_ko": "새매",
    "name_de": "Habicht",
    "name_uk": "яструб",
    "name_tr": "şahin"
  },
  {
    "nodeId": 6610,
    "scientific_name": "Sepia officinalis",
    "name": "cuttlefish",
    "parentId": 6609,
    "name_es": "sepia",
    "name_fr": "seiche",
    "name_hu": "tintahal",
    "name_it": "seppia",
    "name_pt": "sépia",
    "name_ca": "sèpia",
    "name_ko": "갑오징어",
    "name_de": "Gewöhnlicher Tintenfisch",
    "name_uk": "каракатиця",
    "name_tr": "mürekkep balığı"
  },
  {
    "nodeId": 102866,
    "scientific_name": "Hapalochlaena lunulata",
    "name": "blue-ringed octopus",
    "parentId": 61715,
    "name_es": "pulpo de anillos azules",
    "name_fr": "poulpe à anneaux bleus",
    "name_hu": "kékgyűrűs polip",
    "name_it": "polpo dagli anelli blu",
    "name_pt": "polvo de anéis azuis",
    "name_ca": "pop d'anelles blaves",
    "name_ko": "파란고리문어",
    "name_de": "Blauring-Krake",
    "name_uk": "синьокільчастий восьминіг",
    "name_tr": "mavi halkalı ahtapot"
  },
  {
    "nodeId": 256136,
    "scientific_name": "Architeuthis dux",
    "name": "giant squid",
    "parentId": 34555,
    "name_es": "calamar gigante",
    "name_fr": "calmar géant",
    "name_hu": "óriáskalmár",
    "name_it": "calamaro gigante",
    "name_pt": "lula gigante",
    "name_ca": "calamar gegant",
    "name_ko": "대왕오징어",
    "name_de": "Riesenkalmar",
    "name_uk": "гігантський кальмар",
    "name_tr": "dev kalamar"
  },
  {
    "nodeId": 260533,
    "scientific_name": "Theraphosa blondi",
    "name": "tarantula",
    "parentId": 260532,
    "name_es": "tarántula",
    "name_fr": "mygale",
    "name_hu": "madárpók",
    "name_it": "tarantola golia",
    "name_pt": "tarântula",
    "name_ca": "taràntula",
    "name_ko": "타란툴라",
    "name_de": "Riesenvogelspinne",
    "name_uk": "тарантул",
    "name_tr": "tarantula"
  },
  {
    "nodeId": 679132,
    "scientific_name": "Heteropoda maxima",
    "name": "huntsman spider",
    "parentId": 152924,
    "name_es": "araña cazadora",
    "name_fr": "araignée-chasseuse des forêts",
    "name_hu": "vadászpók",
    "name_it": "ragno cacciatore gigante",
    "name_pt": "aranha-caçadora-gigante",
    "name_ca": "aranya caçadora gegant",
    "name_ko": "농발거미",
    "name_de": "Riesenkrabbenspinne",
    "name_uk": "павук-мисливець",
    "name_tr": "avcı örümceği"
  },
  {
    "nodeId": 6925,
    "scientific_name": "Latrodectus tredecimguttatus",
    "name": "black widow",
    "parentId": 6923,
    "name_es": "viuda negra",
    "name_fr": "veuve noire",
    "name_hu": "fekete özvegy",
    "name_it": "vedova nera",
    "name_pt": "viúva negra",
    "name_ca": "vídua negra",
    "name_ko": "검은과부거미",
    "name_de": "Schwarze Witwe",
    "name_uk": "павук чорна вдова",
    "name_tr": "kara dul"
  },
  {
    "nodeId": 8517,
    "scientific_name": "Iguana iguana",
    "name": "iguana",
    "parentId": 8516,
    "name_es": "iguana",
    "name_fr": "iguane vert",
    "name_hu": "leguán",
    "name_it": "iguana",
    "name_pt": "iguana",
    "name_ca": "iguana",
    "name_ko": "이구아나",
    "name_de": "Leguan",
    "name_uk": "ігуана",
    "name_tr": "iguana"
  },
  {
    "nodeId": 91907,
    "scientific_name": "Chamaeleo chamaeleon",
    "name": "chameleon",
    "parentId": 51754,
    "name_es": "camaleón",
    "name_fr": "caméléon",
    "name_hu": "kaméleon",
    "name_it": "camaleonte",
    "name_pt": "camaleão",
    "name_ca": "camaleó",
    "name_ko": "카멜레온",
    "name_de": "Chamäleon",
    "name_uk": "хамелеон",
    "name_tr": "bukalemun"
  },
  {
    "nodeId": 6145,
    "scientific_name": "Aurelia aurita",
    "name": "jellyfish",
    "parentId": 6144,
    "name_es": "medusa",
    "name_fr": "méduse",
    "name_hu": "medúza",
    "name_it": "medusa",
    "name_pt": "água-viva",
    "name_ca": "aurèlia",
    "name_ko": "해파리",
    "name_de": "Gemeine Ohrenqualle",
    "name_uk": "медуза",
    "name_tr": "denizanası"
  },
  {
    "nodeId": 6584,
    "scientific_name": "Spisula solidissima",
    "name": "sea clam",
    "parentId": 6582,
    "name_es": "almeja de mar",
    "name_fr": "palourde",
    "name_hu": "tengeri kagyló",
    "name_it": "vongola",
    "name_pt": "molusco do mar",
    "name_ca": "cloïssa de l'atlàntic",
    "name_ko": "조개",
    "name_de": "Meerklaffmuschel",
    "name_uk": "морський молюск",
    "name_tr": "deniz tarağı"
  },
  {
    "nodeId": 6707,
    "scientific_name": "Homarus gammarus",
    "name": "lobster",
    "parentId": 6705,
    "name_es": "bogavante",
    "name_fr": "homard",
    "name_hu": "homár",
    "name_it": "astice",
    "name_pt": "lagosta",
    "name_ca": "llamàntol",
    "name_ko": "바닷가재",
    "name_de": "Europäischer Hummer",
    "name_uk": "лобстер",
    "name_tr": "ıstakoz"
  },
  {
    "nodeId": 102976,
    "scientific_name": "Euphausia pacifica",
    "name": "krill",
    "parentId": 6818,
    "name_es": "kril",
    "name_fr": "krill",
    "name_hu": "krill",
    "name_it": "krill",
    "name_pt": "krill",
    "name_ca": "krill",
    "name_ko": "크릴새우",
    "name_de": "Pazifischer Krill",
    "name_uk": "криль",
    "name_tr": "kril"
  },
  {
    "nodeId": 6536,
    "scientific_name": "Helix pomatia",
    "name": "snail",
    "parentId": 6534,
    "name_es": "caracol",
    "name_fr": "escargot",
    "name_hu": "csiga",
    "name_it": "chiocciola",
    "name_pt": "escargot",
    "name_ca": "caragol de borgonya",
    "name_ko": "달팽이",
    "name_de": "Weinbergschnecke",
    "name_uk": "равлик",
    "name_tr": "salyangoz"
  },
  {
    "nodeId": 2067768,
    "scientific_name": "Ariolimax columbianus",
    "name": "banana slug",
    "parentId": 2029300,
    "name_es": "babosa de plátano",
    "name_fr": "limace-banane",
    "name_hu": "banáncsiga",
    "name_it": "lumaca banana",
    "name_pt": "lesma banana",
    "name_ca": "llimac plàtan",
    "name_ko": "바나나민달팽이",
    "name_de": "Bananaschnecke",
    "name_uk": "слимак",
    "name_tr": "sümüklüböcek"
  },
  {
    "nodeId": 7671,
    "scientific_name": "Strongylocentrotus droebachiensis",
    "name": "sea urchin",
    "parentId": 7664,
    "name_es": "erizo de mar",
    "name_fr": "oursin",
    "name_hu": "tengerisün",
    "name_it": "riccio di mare",
    "name_pt": "ouriço-do-mar",
    "name_ca": "eriçó de mar",
    "name_ko": "성게",
    "name_de": "Seeigel",
    "name_uk": "морський їжак",
    "name_tr": "deniz kestanesi"
  },
  {
    "nodeId": 242715,
    "scientific_name": "Diploria labyrinthiformis",
    "name": "brain coral",
    "parentId": 89253,
    "name_es": "coral cerebral",
    "name_fr": "corail-cerveau",
    "name_hu": "agykorall",
    "name_it": "corallo cervello",
    "name_pt": "coral-cérebro",
    "name_ca": "corall cervell",
    "name_ko": "산호",
    "name_de": "Gehirnkoralle",
    "name_uk": "корал-мозковик",
    "name_tr": "beyin mercanı"
  },
  {
    "nodeId": 168775,
    "scientific_name": "Physalia physalis",
    "name": "man o war",
    "parentId": 168774,
    "name_es": "carabela portuguesa",
    "name_fr": "physalie",
    "name_hu": "portugál gálya",
    "name_it": "caravella portoghese",
    "name_pt": "caravela-portuguesa",
    "name_ca": "caravel·la portuguesa",
    "name_ko": "고깔해파리",
    "name_de": "Portugiesische Galeere",
    "name_uk": "фізалія",
    "name_tr": "fizalya"
  },
  {
    "nodeId": 195334,
    "scientific_name": "Sphyrna mokarran",
    "name": "hammerhead shark",
    "parentId": 7822,
    "name_es": "tiburon martillo",
    "name_fr": "requin-marteau",
    "name_hu": "pörölycápa",
    "name_it": "squalo martello",
    "name_pt": "tubarão cabeça de martelo",
    "name_ca": "tauró martell",
    "name_ko": "귀상어",
    "name_de": "Hammerhai",
    "name_uk": "акула-молот",
    "name_tr": "çekiç başlı köpekbalığı"
  },
  {
    "nodeId": 9833,
    "scientific_name": "Hippopotamus amphibius",
    "name": "hippopotamus",
    "parentId": 9832,
    "name_es": "hipopótamo",
    "name_fr": "hippopotame",
    "name_hu": "viziló",
    "name_it": "ippopotamo",
    "name_pt": "hipopótamo",
    "name_ca": "hipopòtam",
    "name_ko": "하마",
    "name_de": "Flusspferd",
    "name_uk": "бегемот",
    "name_tr": "hipopotam"
  },
  {
    "nodeId": 7507,
    "scientific_name": "Mantis religiosa",
    "name": "praying mantis",
    "parentId": 7506,
    "name_es": "mantis religiosa",
    "name_fr": "mante religieuse",
    "name_hu": "imádkozó sáska",
    "name_it": "mantide religiosa",
    "name_pt": "louva-a-deus",
    "name_ca": "mantis",
    "name_ko": "사마귀",
    "name_de": "Gottesanbeterin",
    "name_uk": "богомол",
    "name_tr": "peygamberdevesi"
  },
  {
    "nodeId": 35669,
    "scientific_name": "Larus argentatus",
    "name": "seagull",
    "parentId": 8911,
    "name_es": "gaviota",
    "name_fr": "goéland",
    "name_hu": "sirály",
    "name_it": "gabbiano",
    "name_pt": "gaivota",
    "name_ca": "gavià argentat",
    "name_ko": "갈매기",
    "name_de": "Silbermöwe",
    "name_uk": "чайка",
    "name_tr": "martı"
  },
  {
    "nodeId": 6687,
    "scientific_name": "Penaeus monodon",
    "name": "tiger prawn",
    "parentId": 133894,
    "name_es": "camarón tigre",
    "name_fr": "crevette géante tigrée",
    "name_hu": "tigrisrák",
    "name_it": "gambero gigante indopacifico",
    "name_pt": "camarão tigre",
    "name_ca": "llagostí negre",
    "name_ko": "얼룩새우",
    "name_de": "Tiger-Garnele",
    "name_uk": "тигрова креветка",
    "name_tr": "kaplan karidesi"
  },
  {
    "nodeId": 51876,
    "scientific_name": "Eunectes murinus",
    "name": "anaconda",
    "parentId": 51875,
    "name_es": "anaconda",
    "name_fr": "anaconda",
    "name_hu": "anakonda",
    "name_it": "anaconda",
    "name_pt": "sucuri",
    "name_ca": "anaconda",
    "name_ko": "아나콘다",
    "name_de": "Grüne Anakonda",
    "name_uk": "анаконда",
    "name_tr": "anakonda"
  },
  {
    "nodeId": 56350,
    "scientific_name": "Falco sparverius",
    "name": "kestrel",
    "parentId": 8952,
    "name_es": "cernícalo",
    "name_fr": "crécerelle",
    "name_hu": "vércse",
    "name_it": "gheppio",
    "name_pt": "falcão-americano",
    "name_ca": "xoriguer",
    "name_ko": "황조롱이",
    "name_de": "Amerikanischer Turmfalke",
    "name_uk": "боривітер американський",
    "name_tr": "kerkenez"
  },
  {
    "nodeId": 9739,
    "scientific_name": "Tursiops truncatus",
    "name": "dolphin",
    "parentId": 9738,
    "name_es": "delfín",
    "name_fr": "dauphin",
    "name_hu": "delfin",
    "name_it": "delfino",
    "name_pt": "golfinho",
    "name_ca": "dofí",
    "name_ko": "돌고래",
    "name_de": "Großer Tümmler",
    "name_uk": "дельфін",
    "name_tr": "yunus"
  },
  {
    "nodeId": 166335,
    "scientific_name": "Scarabaeus sacer",
    "name": "dung beetle",
    "parentId": 1172026,
    "name_es": "escarabajo",
    "name_fr": "bousier",
    "name_hu": "ganajtúró bogár",
    "name_it": "scarabeo stercorario",
    "name_pt": "escaravelho",
    "name_ca": "escarabat",
    "name_ko": "소똥구리",
    "name_de": "Heiliger Pillendreher",
    "name_uk": "гнойовий жук",
    "name_tr": "bok böceği"
  },
  {
    "nodeId": 9321,
    "scientific_name": "Osphranter rufus",
    "name": "kangaroo",
    "parentId": 2182372,
    "name_es": "canguro",
    "name_fr": "kangourou",
    "name_hu": "kenguru",
    "name_it": "canguro",
    "name_pt": "canguru",
    "name_ca": "cangur",
    "name_ko": "캥거루",
    "name_de": "Rotes Riesenkänguru",
    "name_uk": "кенгуру",
    "name_tr": "kanguru"
  },
  {
    "nodeId": 95723,
    "scientific_name": "Ramphastos toco",
    "name": "toucan",
    "parentId": 91780,
    "name_es": "tucán",
    "name_fr": "toucan",
    "name_hu": "tukán",
    "name_it": "tucano",
    "name_pt": "tucano",
    "name_ca": "tucà",
    "name_ko": "왕부리새",
    "name_de": "Tukan",
    "name_uk": "тукан",
    "name_tr": "tukan"
  },
  {
    "nodeId": 9844,
    "scientific_name": "Lama glama",
    "name": "llama",
    "parentId": 9839,
    "name_es": "llama",
    "name_fr": "lama",
    "name_hu": "láma",
    "name_it": "lama",
    "name_pt": "lhama",
    "name_ca": "llama",
    "name_ko": "라마",
    "name_de": "Lama",
    "name_uk": "лама",
    "name_tr": "lama"
  },
  {
    "nodeId": 8924,
    "scientific_name": "Vultur gryphus",
    "name": "condor",
    "parentId": 8923,
    "name_es": "cóndor",
    "name_fr": "condor",
    "name_hu": "kondorkeselyű",
    "name_it": "condor",
    "name_pt": "condor",
    "name_ca": "còndor",
    "name_ko": "콘도르",
    "name_de": "Andenkondor",
    "name_uk": "кондор",
    "name_tr": "and kondoru"
  },
  {
    "nodeId": 435638,
    "scientific_name": "Phoenicopterus roseus",
    "name": "flamingo",
    "parentId": 9216,
    "name_es": "flamenco",
    "name_fr": "flamant",
    "name_hu": "flamingó",
    "name_it": "fenicottero",
    "name_pt": "flamingo",
    "name_ca": "flamenc",
    "name_ko": "플라밍고",
    "name_de": "Rosaflamingo",
    "name_uk": "фламінго",
    "name_tr": "flamingo"
  },
  {
    "nodeId": 9995,
    "scientific_name": "Marmota monax",
    "name": "groundhog",
    "parentId": 9992,
    "name_es": "marmota",
    "name_fr": "marmotte",
    "name_hu": "mormota",
    "name_it": "marmotta",
    "name_pt": "marmota",
    "name_ca": "marmota",
    "name_ko": "마멋",
    "name_de": "Murmel",
    "name_uk": "бабак",
    "name_tr": "dağ sıçanı"
  },
  {
    "nodeId": 8005,
    "scientific_name": "Electrophorus electricus",
    "name": "electric eel",
    "parentId": 8004,
    "name_es": "anguila electrica",
    "name_fr": "anguille électrique",
    "name_hu": "elektromos angolna",
    "name_it": "anguilla elettrica",
    "name_pt": "enguia elétrica",
    "name_ca": "anguila elèctrica",
    "name_ko": "전기뱀장어",
    "name_de": "Elektrischer Aal",
    "name_uk": "електричний вугор",
    "name_tr": "elektrikli yılan balığı"
  },
  {
    "nodeId": 8624,
    "scientific_name": "Dendroaspis polylepis",
    "name": "black mamba",
    "parentId": 8617,
    "name_es": "mamba negro",
    "name_fr": "mamba noir",
    "name_hu": "fekete mamba",
    "name_it": "mamba nero",
    "name_pt": "mamba negra",
    "name_ca": "mamba negra",
    "name_ko": "블랙맘바",
    "name_de": "Schwarze Mamba",
    "name_uk": "чорна мамба",
    "name_tr": "kara mamba"
  },
  {
    "nodeId": 61221,
    "scientific_name": "Varanus komodoensis",
    "name": "komodo dragon",
    "parentId": 8556,
    "name_es": "dragon de komodo",
    "name_fr": "dragon de komodo",
    "name_hu": "komodói varánusz",
    "name_it": "drago di komodo",
    "name_pt": "dragão de komodo",
    "name_ca": "dragó de komodo",
    "name_ko": "코모도왕도마뱀",
    "name_de": "Komodowaran",
    "name_uk": "комодський варан",
    "name_tr": "komodo ejderi"
  },
  {
    "nodeId": 9305,
    "scientific_name": "Sarcophilus harrisii",
    "name": "tasmanian devil",
    "parentId": 9304,
    "name_es": "demonio de tasmania",
    "name_hu": "erszényes ördög",
    "name_fr": "diable de tasmanie",
    "name_it": "diavolo della tasmania",
    "name_pt": "diabo da tasmânia",
    "name_ca": "diable de tasmània",
    "name_ko": "태즈메이니아주머니너구리",
    "name_de": "Beutelteufel",
    "name_uk": "тасманійський диявол",
    "name_tr": "tazmanya canavarı"
  },
  {
    "nodeId": 9447,
    "scientific_name": "Lemur catta",
    "name": "lemur",
    "parentId": 9446,
    "name_es": "lémur",
    "name_fr": "lémur",
    "name_hu": "lemúr",
    "name_it": "lemure",
    "name_pt": "lêmure",
    "name_ca": "lèmur",
    "name_ko": "여우원숭이",
    "name_de": "Katta",
    "name_uk": "лемур",
    "name_tr": "lemur"
  },
  {
    "nodeId": 7010,
    "scientific_name": "Schistocerca gregaria",
    "name": "locust",
    "parentId": 7008,
    "name_es": "langosta del desierto",
    "name_fr": "criquet pèlerin",
    "name_hu": "vándorsáska",
    "name_it": "locusta",
    "name_pt": "gafanhoto",
    "name_ca": "llagosta del desert",
    "name_ko": "사막메뚜기",
    "name_de": "Wüstenheuschrecke",
    "name_uk": "сарана",
    "name_tr": "çöl çekirgesi"
  },
  {
    "nodeId": 7009,
    "scientific_name": "Schistocerca americana",
    "name": "grasshopper",
    "parentId": 7008,
    "name_es": "saltamontes",
    "name_hu": "szöcske",
    "name_fr": "criquet d'amérique",
    "name_it": "cavalletta",
    "name_pt": "esperança",
    "name_ca": "llagosta americana",
    "name_ko": "미국새메뚜기",
    "name_de": "Gewöhnliche Grashüpfer",
    "name_uk": "коник-стрибунець",
    "name_tr": "çekirge"
  },
  {
    "nodeId": 58607,
    "scientific_name": "Gryllus campestris",
    "name": "cricket",
    "parentId": 6998,
    "name_es": "grillo",
    "name_fr": "grillon",
    "name_hu": "tücsök",
    "name_it": "grillo",
    "name_pt": "grilo",
    "name_ca": "grill",
    "name_ko": "귀뚜라미",
    "name_de": "Heuschrecke",
    "name_uk": "цвіркун",
    "name_tr": "cırcırböceği"
  },
  {
    "nodeId": 1574408,
    "scientific_name": "Cervus canadensis",
    "name": "elk",
    "parentId": 9859,
    "name_es": "uapití",
    "name_fr": "wapiti",
    "name_hu": "vapiti",
    "name_it": "wapiti",
    "name_pt": "uapiti",
    "name_ca": "uapití",
    "name_ko": "와피티사슴",
    "name_de": "Wapiti",
    "name_uk": "вапіті",
    "name_tr": "geyik"
  },
  {
    "nodeId": 9870,
    "scientific_name": "Rangifer tarandus",
    "name": "caribou",
    "parentId": 9869,
    "name_es": "caribú",
    "name_fr": "renne",
    "name_hu": "rénszarvas",
    "name_it": "caribù",
    "name_pt": "caribú",
    "name_ca": "ren",
    "name_ko": "순록",
    "name_de": "Rentier",
    "name_uk": "олень карібу",
    "name_tr": "karibu"
  },
  {
    "nodeId": 70868,
    "scientific_name": "Sphyraena barracuda",
    "name": "barracuda",
    "parentId": 13691,
    "name_es": "barracuda",
    "name_fr": "barracuda",
    "name_hu": "barrakuda",
    "name_it": "barracuda",
    "name_pt": "barracuda",
    "name_ca": "barracuda",
    "name_ko": "꼬치고기",
    "name_de": "Barrakuda",
    "name_uk": "баракуда",
    "name_tr": "baraküda"
  },
  {
    "nodeId": 41139,
    "scientific_name": "Coccinella septempunctata",
    "name": "ladybug",
    "parentId": 41138,
    "name_es": "mariquita",
    "name_fr": "coccinelle",
    "name_hu": "katica",
    "name_it": "coccinella",
    "name_pt": "joaninha",
    "name_ca": "marieta",
    "name_ko": "무당벌레",
    "name_de": "Siebenpunkt-Marienkäfer",
    "name_uk": "сонечко",
    "name_tr": "uğur böceği"
  },
  {
    "nodeId": 63978,
    "scientific_name": "Attacus atlas",
    "name": "atlas moth",
    "parentId": 63966,
    "name_es": "polilla atlas",
    "name_fr": "atlas",
    "name_hu": "molylepke",
    "name_it": "farfalla cobra",
    "name_pt": "mariposa atlas",
    "name_ca": "papallona atles",
    "name_ko": "아틀라스나방",
    "name_de": "Atlas-Falter",
    "name_uk": "атласова міль",
    "name_tr": "Atlas güvesi"
  },
  {
    "nodeId": 36987,
    "scientific_name": "Coptotermes formosanus",
    "name": "termite",
    "parentId": 36986,
    "name_es": "termita",
    "name_fr": "termite",
    "name_hu": "termesz",
    "name_it": "termite",
    "name_pt": "cupim",
    "name_ca": "tèrmit",
    "name_ko": "흰개미",
    "name_de": "Formosanische Termiten",
    "name_uk": "терміт",
    "name_tr": "termit"
  },
  {
    "nodeId": 6978,
    "scientific_name": "Periplaneta americana",
    "name": "cockroach",
    "parentId": 6977,
    "name_es": "cucaracha",
    "name_fr": "blatte",
    "name_hu": "csótány",
    "name_it": "scarafaggio",
    "name_pt": "barata",
    "name_ca": "panerola",
    "name_ko": "바퀴벌레",
    "name_de": "Amerikanische Schabe",
    "name_uk": "тарган",
    "name_tr": "hamam böceği"
  },
  {
    "nodeId": 13068,
    "scientific_name": "Forficula auricularia",
    "name": "earwig",
    "parentId": 98427,
    "name_es": "tijereta",
    "name_fr": "perce-oreille",
    "name_hu": "fülbemászó",
    "name_it": "tagliaforbice",
    "name_pt": "lacrainha",
    "name_ca": "tisoretes",
    "name_ko": "집게벌레",
    "name_de": "Ohrwurm",
    "name_uk": "вуховертка",
    "name_tr": "kulağakaçan"
  },
  {
    "nodeId": 1646243,
    "scientific_name": "Aeshna canadensis",
    "name": "dragonfly",
    "parentId": 12920,
    "name_es": "libélula",
    "name_fr": "libellule",
    "name_hu": "szitakötő",
    "name_it": "libellula",
    "name_pt": "libélula",
    "name_ca": "libèl·lula",
    "name_ko": "잠자리",
    "name_de": "Kanadische Mosaikjungfer",
    "name_uk": "бабка",
    "name_tr": "yusufçuk"
  },
  {
    "nodeId": 8554,
    "scientific_name": "Heloderma suspectum",
    "name": "gila monster",
    "parentId": 8550,
    "name_es": "monstruo de gila",
    "name_hu": "gila",
    "name_fr": "monstre de gila",
    "name_it": "mostro di gila",
    "name_pt": "monstro de gila",
    "name_ca": "monstre de gila",
    "name_ko": "독도마뱀",
    "name_de": "Gila-Krustenechse",
    "name_uk": "ядозуб",
    "name_tr": "gila canavarı"
  },
  {
    "nodeId": 10149,
    "scientific_name": "Hydrochoerus hydrochaeris",
    "name": "capybara",
    "parentId": 10148,
    "name_es": "capibara",
    "name_fr": "capybara",
    "name_hu": "vízidisznó",
    "name_it": "capibara",
    "name_pt": "capivara",
    "name_ca": "capibara",
    "name_ko": "카피바라",
    "name_de": "Wasserschwein",
    "name_uk": "капібара",
    "name_tr": "kapibara"
  },
  {
    "nodeId": 1983395,
    "scientific_name": "Mobula birostris",
    "name": "manta ray",
    "parentId": 86365,
    "name_es": "mantarraya",
    "name_fr": "raie manta",
    "name_hu": "ördögrája",
    "name_it": "manta",
    "name_pt": "raia manta",
    "name_ca": "manta gegant",
    "name_ko": "대왕쥐가오리",
    "name_de": "Rochen",
    "name_uk": "скат манта",
    "name_tr": "şeytan vatozu"
  },
  {
    "nodeId": 2484686,
    "scientific_name": "Hypanus americanus",
    "name": "sting ray",
    "parentId": 2055258,
    "name_es": "raya de espina",
    "name_fr": "raie pastenague",
    "name_hu": "rája",
    "name_it": "razza",
    "name_pt": "raia do sul",
    "name_ca": "escurçana americana",
    "name_ko": "매가오리",
    "name_de": "Stechrochen",
    "name_uk": "хвостокол каліфорнійський",
    "name_tr": "irina"
  },
  {
    "nodeId": 1129476,
    "scientific_name": "Dardanus calidus",
    "name": "hermit crab",
    "parentId": 370547,
    "name_es": "cangrejo ermitaño",
    "name_fr": "bernard-l'hermite",
    "name_hu": "remeterák",
    "name_it": "paguro",
    "name_pt": "caranguejo ermitão",
    "name_ca": "cranc hermità",
    "name_ko": "소라게",
    "name_de": "Einsiedlerkrebs",
    "name_uk": "рак-самітник",
    "name_tr": "hermit yengeci"
  },
  {
    "nodeId": 342437,
    "scientific_name": "Arothron meleagris",
    "name": "pufferfish",
    "parentId": 50368,
    "name_es": "pez globo",
    "name_fr": "poisson-globe",
    "name_hu": "gömbhal",
    "name_it": "pesce palla",
    "name_pt": "baiacu",
    "name_ca": "peix globus",
    "name_ko": "복어",
    "name_de": "Kugelfisch",
    "name_uk": "риба-фугу",
    "name_tr": "balon balığı"
  },
  {
    "nodeId": 9049,
    "scientific_name": "Pavo cristatus",
    "name": "peacock",
    "parentId": 9048,
    "name_es": "pavo real",
    "name_fr": "paon",
    "name_hu": "páva",
    "name_it": "pavone",
    "name_pt": "pavão",
    "name_ca": "paó",
    "name_ko": "공작",
    "name_de": "Pfau",
    "name_uk": "павич",
    "name_tr": "tavus kuşu"
  },
  {
    "nodeId": 571810,
    "scientific_name": "Actinopyga echinites",
    "name": "sea cucumber",
    "parentId": 206674,
    "name_es": "pepino de mar",
    "name_fr": "concombre de mer",
    "name_hu": "tengeri uborka",
    "name_it": "cetriolo di mare",
    "name_pt": "pepino-do-mar",
    "name_ca": "cogombre de mar",
    "name_ko": "해삼",
    "name_de": "Seegurke",
    "name_uk": "морський огірок",
    "name_tr": "deniz hıyarı"
  },
  {
    "nodeId": 9852,
    "scientific_name": "Alces alces",
    "name": "moose",
    "parentId": 9851,
    "name_es": "alce",
    "name_fr": "élan",
    "name_hu": "jávorszarvas",
    "name_it": "alce",
    "name_pt": "alce",
    "name_ca": "ant",
    "name_ko": "물코손바닥사슴",
    "name_de": "Elch",
    "name_uk": "лось звичайний",
    "name_tr": "sığın"
  },
  {
    "nodeId": 13347,
    "scientific_name": "Armadillidium vulgare",
    "name": "pillbug",
    "parentId": 13346,
    "name_es": "conchinilla",
    "name_fr": "cloporte",
    "name_hu": "pincebogár",
    "name_it": "porcellino di terra",
    "name_pt": "tatuzinho-de-jardim",
    "name_ca": "porquet de sant antoni",
    "name_ko": "공벌레",
    "name_de": "Kellerassel",
    "name_uk": "клоп",
    "name_tr": "tespih böceği"
  },
  {
    "nodeId": 110520,
    "scientific_name": "Balanus glandula",
    "name": "barnacle",
    "parentId": 6677,
    "name_es": "percebe",
    "name_fr": "balane",
    "name_hu": "tengerimakk",
    "name_it": "balano",
    "name_pt": "craca",
    "name_ca": "percebe",
    "name_ko": "따개비",
    "name_de": "Seepocke",
    "name_uk": "барнакл",
    "name_tr": "kaya midyesi"
  },
  {
    "nodeId": 8574,
    "scientific_name": "Boa constrictor",
    "name": "boa constrictor",
    "parentId": 8573,
    "name_es": "boa constrictor",
    "name_fr": "boa constricteur",
    "name_hu": "közönséges óriáskígyó",
    "name_it": "boa constritor",
    "name_pt": "jiboia",
    "name_ca": "boa constrictor",
    "name_ko": "보아뱀",
    "name_de": "Boa Constrictor",
    "name_uk": "удав",
    "name_tr": "boa yılanı"
  },
  {
    "nodeId": 30521,
    "scientific_name": "Bos grunniens",
    "name": "yak",
    "parentId": 9903,
    "name_es": "yak",
    "name_fr": "yack",
    "name_hu": "jak",
    "name_it": "yak",
    "name_pt": "iaque",
    "name_ca": "iac",
    "name_ko": "야크",
    "name_de": "Yak",
    "name_uk": "як",
    "name_tr": "yak"
  },
  {
    "nodeId": 10141,
    "scientific_name": "Cavia porcellus",
    "name": "guinea pig",
    "parentId": 10140,
    "name_es": "conejillo de indias",
    "name_hu": "tengerimalac",
    "name_fr": "cochon d'inde",
    "name_it": "porcellino d'india",
    "name_pt": "porquinho da índia",
    "name_ca": "conillet d'índies",
    "name_ko": "기니피그",
    "name_de": "Meerschweinchen",
    "name_uk": "морська свинка",
    "name_tr": "gine domuzu"
  },
  {
    "nodeId": 8697,
    "scientific_name": "Cerastes cerastes",
    "name": "viper",
    "parentId": 8696,
    "name_es": "víbora",
    "name_fr": "vipère",
    "name_hu": "vipera",
    "name_it": "vipera",
    "name_pt": "víbora chifruda",
    "name_ca": "escurçó cornut",
    "name_ko": "사막뿔살무사",
    "name_de": "Wüstensandviper",
    "name_uk": "гадюка",
    "name_tr": "engerek"
  },
  {
    "nodeId": 66189,
    "scientific_name": "Chelonoidis niger",
    "name": "tortoise",
    "parentId": 1137846,
    "name_es": "tortuga gigante",
    "name_hu": "óriásteknős",
    "name_fr": "tortue géante des galápagos",
    "name_it": "tartaruga delle galàpagos",
    "name_pt": "tartaruga de galápagos",
    "name_ca": "tortuga de les galàpagos",
    "name_ko": "타란튤라",
    "name_de": "Riesenschildkröte",
    "name_uk": "черепаха",
    "name_tr": "kaplumbağa"
  },
  {
    "nodeId": 8475,
    "scientific_name": "Chelydra serpentina",
    "name": "snapping turtle",
    "parentId": 8474,
    "name_es": "tortuga mordedora",
    "name_fr": "tortue serpentine",
    "name_hu": "aligátorteknős",
    "name_it": "tartaruga azzannatrice",
    "name_pt": "tartaruga mordedora",
    "name_ca": "tortuga mossegadora",
    "name_ko": "늑대거북",
    "name_de": "Schnappschildkröte",
    "name_uk": "кайманова черепаха",
    "name_tr": "yılansı kapan kaplumbağa"
  },
  {
    "nodeId": 8730,
    "scientific_name": "Crotalus atrox",
    "name": "rattlesnake",
    "parentId": 8728,
    "name_es": "serpiente de cascabel",
    "name_fr": "crotale",
    "name_hu": "csörgőkígyó",
    "name_it": "serpente a sonagli",
    "name_pt": "cascavél",
    "name_ca": "serp de cascabell",
    "name_ko": "방울뱀",
    "name_de": "Klapperschlange",
    "name_uk": "гримуча змія",
    "name_tr": "çıngıraklı yılan"
  },
  {
    "nodeId": 9268,
    "scientific_name": "Didelphis marsupialis",
    "name": "opossum",
    "parentId": 9266,
    "name_es": "zarigüeya",
    "name_fr": "opossum",
    "name_hu": "oposszum",
    "name_it": "opossum",
    "name_pt": "gambá-comum",
    "name_ca": "opòssum",
    "name_ko": "주머니쥐",
    "name_de": "Beutelratte",
    "name_uk": "опосум",
    "name_tr": "keseli sıçan"
  },
  {
    "nodeId": 1247135,
    "scientific_name": "Dynastes hercules",
    "name": "hercules beetle",
    "parentId": 60842,
    "name_es": "hércules escarabajo",
    "name_fr": "scarabée rhinocéros",
    "name_hu": "herkulesbogár",
    "name_it": "scarabeo ercole",
    "name_pt": "besouro hércules",
    "name_ca": "escarabat hèrcules",
    "name_ko": "헤라클레스장수풍뎅이",
    "name_de": "Herkuleskäfer",
    "name_uk": "жук-геркулес",
    "name_tr": "herkül böceği"
  },
  {
    "nodeId": 6421,
    "scientific_name": "Hirudo medicinalis",
    "name": "leech",
    "parentId": 6420,
    "name_es": "sanguijuela",
    "name_fr": "sangsue",
    "name_hu": "pióca",
    "name_it": "sanguisuga",
    "name_pt": "sanguessuga",
    "name_ca": "sangonera",
    "name_ko": "거머리",
    "name_de": "Blutegel",
    "name_uk": "п'явка",
    "name_tr": "sülük"
  },
  {
    "nodeId": 8074,
    "scientific_name": "Lophius piscatorius",
    "name": "anglerfish",
    "parentId": 8072,
    "name_es": "rape blanco",
    "name_fr": "baudroie",
    "name_hu": "horgászhal",
    "name_it": "rana pescatrice",
    "name_pt": "peixe pescador",
    "name_ca": "rap",
    "name_ko": "아귀",
    "name_de": "Seeteufel",
    "name_uk": "риба-вудильник",
    "name_tr": "fener balığı"
  },
  {
    "nodeId": 6398,
    "scientific_name": "Lumbricus terrestris",
    "name": "earthworm",
    "parentId": 1050931,
    "name_es": "lombriz",
    "name_fr": "ver de terre",
    "name_hu": "földigiliszta",
    "name_it": "lombrico",
    "name_pt": "minhoca",
    "name_ca": "cuc de terra",
    "name_ko": "지렁이",
    "name_de": "Regenwurm",
    "name_uk": "черв'як",
    "name_tr": "solucan"
  },
  {
    "nodeId": 1351942,
    "scientific_name": "Mellita quinquiesperforata",
    "name": "sand dollar",
    "parentId": 551536,
    "name_es": "dolar de arena",
    "name_fr": "dollar des sables",
    "name_hu": "homokdollár",
    "name_it": "dollaro della sabbia",
    "name_pt": "bolacha da praia",
    "name_ca": "dòlar de sorra",
    "name_ko": "연잎성게",
    "name_de": "Sanddollar",
    "name_uk": "пісочний долар",
    "name_tr": "kum doları"
  },
  {
    "nodeId": 6550,
    "scientific_name": "Mytilus edulis",
    "name": "mussel",
    "parentId": 6548,
    "name_es": "mejillón",
    "name_fr": "moule",
    "name_hu": "kagyló",
    "name_it": "cozza",
    "name_pt": "mexilhão",
    "name_ca": "musclo",
    "name_ko": "홍합",
    "name_de": "Miesmuschel",
    "name_uk": "мідія",
    "name_tr": "midye"
  },
  {
    "nodeId": 120888,
    "scientific_name": "Odontodactylus scyllarus",
    "name": "mantis shrimp",
    "parentId": 120887,
    "name_es": "camarón mantis",
    "name_fr": "crevette-mante",
    "name_hu": "sáskarák",
    "name_it": "canocchia pavone",
    "name_pt": "lagosta boxeadora",
    "name_ca": "gamba mantis",
    "name_ko": "갯가재",
    "name_de": "Bunter Fangschreckenkrebs",
    "name_uk": "креветка богомол",
    "name_tr": "peygamberdevesi karidesi"
  },
  {
    "nodeId": 8665,
    "scientific_name": "Ophiophagus hannah",
    "name": "king cobra",
    "parentId": 8664,
    "name_es": "cobra real",
    "name_fr": "cobra royal",
    "name_hu": "királykobra",
    "name_it": "cobra",
    "name_pt": "cobra real",
    "name_ca": "cobra reial",
    "name_ko": "킹코브라",
    "name_de": "Königskobra",
    "name_uk": "королівська кобра",
    "name_tr": "kral kobra"
  },
  {
    "nodeId": 291247,
    "scientific_name": "Oxidus gracilis",
    "name": "millipede",
    "parentId": 118475,
    "name_es": "milpiés",
    "name_fr": "mille-pattes",
    "name_hu": "ezerlábú",
    "name_it": "millepiedi",
    "name_pt": "mil-pés",
    "name_ca": "milpeus",
    "name_ko": "노래기",
    "name_de": "Tausendfüßler",
    "name_uk": "багатоніжка",
    "name_tr": "kırkayak"
  },
  {
    "nodeId": 8081,
    "scientific_name": "Poecilia reticulata",
    "name": "guppy",
    "parentId": 8080,
    "name_es": "guppy",
    "name_fr": "guppy",
    "name_hu": "guppi",
    "name_it": "guppy",
    "name_pt": "barrigudinho",
    "name_ca": "guppy",
    "name_ko": "구피",
    "name_de": "Guppy",
    "name_uk": "гуппі",
    "name_tr": "lepistes"
  },
  {
    "nodeId": 9333,
    "scientific_name": "Pseudocheirus peregrinus",
    "name": "possum",
    "parentId": 9332,
    "name_es": "falangero",
    "name_fr": "phalanger",
    "name_hu": "gyűrűsfarkú erszényes",
    "name_it": "coda ad anello",
    "name_pt": "possum",
    "name_ca": "uta",
    "name_ko": "포섬",
    "name_de": "Kletterbeutler",
    "name_uk": "посум",
    "name_tr": "fırça kuyruklu keseli sıçan"
  },
  {
    "nodeId": 1678817,
    "scientific_name": "Rhithrogena germanica",
    "name": "mayfly",
    "parentId": 307890,
    "name_es": "efímera",
    "name_fr": "éphémère",
    "name_hu": "kérész",
    "name_it": "effimera",
    "name_pt": "efêmero",
    "name_ca": "efemeròpter",
    "name_ko": "하루살이",
    "name_de": "Eintagsfliege",
    "name_uk": "oдноденкa",
    "name_tr": "mayıs sineği"
  },
  {
    "nodeId": 29022,
    "scientific_name": "Scutigera coleoptrata",
    "name": "house centipede",
    "parentId": 29021,
    "name_es": "ciempiés",
    "name_fr": "scutigère",
    "name_hu": "százlábú",
    "name_it": "scutigera",
    "name_pt": "centopeia caseira",
    "name_ca": "centpeus",
    "name_ko": "그리마",
    "name_de": "Hundertfüßer",
    "name_uk": "домашня багатоніжка",
    "name_tr": "ev çıyanı"
  },
  {
    "nodeId": 45474,
    "scientific_name": "Tamias striatus",
    "name": "chipmunk",
    "parentId": 13712,
    "name_hu": "csíkosmókus",
    "name_es": "ardilla listada",
    "name_fr": "tamia",
    "name_it": "tamia",
    "name_pt": "tâmia",
    "name_ca": "esquirol llistat",
    "name_ko": "다람쥐",
    "name_de": "Streifenhörnchen",
    "name_uk": "бурундук",
    "name_tr": "çizgili sincap"
  },
  {
    "nodeId": 8236,
    "scientific_name": "Thunnus albacares",
    "name": "tuna",
    "parentId": 8234,
    "name_es": "atún",
    "name_fr": "thon",
    "name_hu": "tonhal",
    "name_it": "tonno",
    "name_pt": "atum",
    "name_ca": "tonyina",
    "name_ko": "참치",
    "name_de": "Gelbflossen-Thunfisch",
    "name_uk": "тунець",
    "name_tr": "ton balığı"
  },
  {
    "nodeId": 190476,
    "scientific_name": "Caiman latirostris",
    "name": "caiman",
    "parentId": 8497,
    "name_es": "caiman",
    "name_fr": "caïman",
    "name_hu": "kajmán",
    "name_it": "caimano",
    "name_pt": "caiman",
    "name_ca": "caiman",
    "name_ko": "카이만",
    "name_de": "Brillenkaiman",
    "name_uk": "кайман",
    "name_tr": "kayman"
  },
  {
    "nodeId": 68724,
    "scientific_name": "Canis aureus",
    "name": "jackal",
    "parentId": 9611,
    "name_es": "chacal",
    "name_fr": "chacal",
    "name_hu": "aranysakál",
    "name_it": "sciacallo",
    "name_pt": "chacal",
    "name_ca": "xacal",
    "name_ko": "자칼",
    "name_de": "Goldschakal",
    "name_uk": "шакал",
    "name_tr": "çakal"
  },
  {
    "nodeId": 7819,
    "scientific_name": "Galeocerdo cuvier",
    "name": "tiger shark",
    "parentId": 7818,
    "name_es": "tiburón tigre",
    "name_fr": "requin-tigre",
    "name_hu": "tigriscápa",
    "name_it": "squalo tigre",
    "name_pt": "tubarão-tigre",
    "name_ca": "tauró tigre",
    "name_ko": "뱀상어",
    "name_de": "Tigerhai",
    "name_uk": "тигрова акула",
    "name_tr": "kaplan köpek balığı"
  },
  {
    "nodeId": 57987,
    "scientific_name": "Mitsukurina owstoni",
    "name": "goblin shark",
    "parentId": 57986,
    "name_es": "tiburón duende",
    "name_fr": "requin-lutin",
    "name_hu": "koboldcápa",
    "name_it": "squalo goblin",
    "name_pt": "tubarão-duende",
    "name_ca": "tauró follet",
    "name_ko": "마귀상어",
    "name_de": "Koboldhai",
    "name_uk": "акула-гоблін",
    "name_tr": "goblin köpek balığı"
  },
  {
    "nodeId": 267067,
    "scientific_name": "Enteroctopus dofleini",
    "name": "giant octopus",
    "parentId": 267066,
    "name_es": "pulpo gigante",
    "name_fr": "pieuvre géante",
    "name_hu": "óriáspolip",
    "name_it": "piovra gigante",
    "name_pt": "polvo gigante",
    "name_ca": "pop gegant",
    "name_ko": "태평양대왕문어",
    "name_de": "Riesenkrake",
    "name_uk": "гігантський восьминіг",
    "name_tr": "dev ahtapot"
  },
  {
    "nodeId": 34570,
    "scientific_name": "Sepioteuthis lessoniana",
    "name": "bigfin squid",
    "parentId": 34569,
    "name_es": "calamar bigfin",
    "name_fr": "calmar à grandes nageoires",
    "name_hu": "ovális tintahal",
    "name_it": "calamaro di lesson",
    "name_pt": "lula de glitter",
    "name_ca": "calamar d'aleta gran",
    "name_ko": "큰지느러미오징어",
    "name_de": "Großflossen-Riffkalmar",
    "name_uk": "кальмар",
    "name_tr": "bigfin kalamarı"
  },
  {
    "nodeId": 34578,
    "scientific_name": "Nautilus belauensis",
    "name": "nautilus",
    "parentId": 34572,
    "name_es": "nautilo",
    "name_fr": "nautile",
    "name_hu": "csigáspolip",
    "name_it": "nautilo",
    "name_pt": "náutilo",
    "name_ca": "nàutil",
    "name_ko": "앵무조개",
    "name_de": "Perlboot",
    "name_uk": "наутилус",
    "name_tr": "notilus"
  },
  {
    "nodeId": 51359,
    "scientific_name": "Dryocopus pileatus",
    "name": "woodpecker",
    "parentId": 51358,
    "name_es": "pájaro carpintero",
    "name_fr": "pic",
    "name_hu": "harkály",
    "name_it": "picchio",
    "name_pt": "pica-pau",
    "name_ca": "picot negre",
    "name_ko": "딱따구리",
    "name_de": "Helmspecht",
    "name_uk": "дятел",
    "name_tr": "ağaçkakan"
  },
  {
    "nodeId": 2082998,
    "scientific_name": "Mellisuga helenae",
    "name": "hummingbird",
    "parentId": 1507478,
    "name_es": "colibrí",
    "name_fr": "colibri",
    "name_hu": "kolibri",
    "name_it": "colibrì",
    "name_pt": "beija-flor",
    "name_ca": "colibrí",
    "name_ko": "벌새",
    "name_de": "Kolibri",
    "name_uk": "колібрі",
    "name_tr": "sinekkuşu"
  },
  {
    "nodeId": 52810,
    "scientific_name": "Milvus migrans",
    "name": "kite",
    "parentId": 43517,
    "name_es": "milano negro",
    "name_fr": "milan",
    "name_hu": "barna kánya",
    "name_it": "nibbio bruno",
    "name_pt": "milhafre",
    "name_ca": "milà negre",
    "name_ko": "솔개",
    "name_de": "Schwarzmilan",
    "name_uk": "чорний шуліка",
    "name_tr": "kara çaylak"
  },
  {
    "nodeId": 43455,
    "scientific_name": "Cathartes aura",
    "name": "turkey vulture",
    "parentId": 33611,
    "name_es": "buitre pavo",
    "name_fr": "urubu à tête rouge",
    "name_hu": "pulykakeselyű",
    "name_it": "avvoltoio collorosso",
    "name_pt": "urubu-de-cabeça-vermelha",
    "name_ca": "zopilot capvermell",
    "name_ko": "칠면조독수리",
    "name_de": "Truthahngeier",
    "name_uk": "катарта червоноголова",
    "name_tr": "hindi akbabası"
  },
  {
    "nodeId": 96725,
    "scientific_name": "Tiliqua gigas",
    "name": "skink",
    "parentId": 8526,
    "name_es": "escinco",
    "name_fr": "scinque",
    "name_hu": "szkink",
    "name_it": "scinco",
    "name_pt": "lagarto",
    "name_ca": "esquinc de llengua blava",
    "name_ko": "도루묵도마뱀",
    "name_de": "Blauzungenskink",
    "name_uk": "сцинк",
    "name_tr": "skink"
  },
  {
    "nodeId": 212017,
    "scientific_name": "Lethocerus indicus",
    "name": "water bug",
    "parentId": 43338,
    "name_es": "chinche acuática gigante",
    "name_fr": "punaise d'eau",
    "name_hu": "vízipoloska",
    "name_it": "cimice d'acqua",
    "name_pt": "barata d'água",
    "name_ca": "escarabat d'aigua",
    "name_ko": "물장군",
    "name_de": "Wasserwanze",
    "name_uk": "водяний клоп",
    "name_tr": "su böceği"
  },
  {
    "nodeId": 209230,
    "scientific_name": "Betta tussyae",
    "name": "betta fish",
    "parentId": 158455,
    "name_es": "pez betta",
    "name_fr": "poisson combattant",
    "name_hu": "sziámi harcoshal",
    "name_it": "pesce betta",
    "name_pt": "peixe betta",
    "name_ca": "gourami",
    "name_ko": "베타",
    "name_de": "Roter Kampffisch",
    "name_uk": "бойова рибка",
    "name_tr": "betta balığı"
  },
  {
    "nodeId": 129333,
    "scientific_name": "Morelia viridis",
    "name": "green tree python",
    "parentId": 51894,
    "name_es": "pitón de árbol verde",
    "name_fr": "python vert",
    "name_hu": "smaragdzöld piton",
    "name_it": "pitone verde",
    "name_pt": "píton verde",
    "name_ca": "pitó verd",
    "name_ko": "초록나무비단뱀",
    "name_de": "Grüner Baumpython",
    "name_uk": "зелений деревний пітон",
    "name_tr": "yeşil ağaç pitonu"
  },
  {
    "nodeId": 1647984,
    "scientific_name": "Tubuca urvillei",
    "name": "fiddler crab",
    "parentId": 1239988,
    "name_es": "cangrejo violinista",
    "name_fr": "crabe violoniste",
    "name_hu": "intőrák",
    "name_it": "granchio violino",
    "name_pt": "caranguejo violinista",
    "name_ca": "cranc violinista",
    "name_ko": "농게",
    "name_de": "Winkerkrabbe",
    "name_uk": "краб-скрипаль",
    "name_tr": "kemancı yengeç"
  },
  {
    "nodeId": 9927,
    "scientific_name": "Connochaetes taurinus",
    "name": "wildebeest",
    "parentId": 9926,
    "name_es": "ñu",
    "name_fr": "gnou",
    "name_hu": "gnú",
    "name_it": "gnù",
    "name_pt": "gnu",
    "name_ca": "nyu",
    "name_ko": "검은꼬리누",
    "name_de": "Gnu",
    "name_uk": "антилопа гну",
    "name_tr": "Afrika antilobu"
  },
  {
    "nodeId": 50434,
    "scientific_name": "Ctenocephalides canis",
    "name": "flea",
    "parentId": 7514,
    "name_es": "pulga",
    "name_fr": "puce",
    "name_hu": "bolha",
    "name_it": "pulce",
    "name_pt": "pulga",
    "name_ca": "puça",
    "name_ko": "벼룩",
    "name_de": "Hundefloh",
    "name_uk": "блоха",
    "name_tr": "pire"
  },
  {
    "nodeId": 7897,
    "scientific_name": "Latimeria chalumnae",
    "name": "coelacanth",
    "parentId": 7896,
    "name_es": "celacanto",
    "name_fr": "coelacanthe",
    "name_hu": "bojtosúszójúhal",
    "name_it": "celacanto",
    "name_pt": "celacanto",
    "name_ca": "celacant",
    "name_ko": "실러캔스",
    "name_de": "Quastenflosser",
    "name_uk": "латимерія",
    "name_tr": "coelacanth"
  },
  {
    "nodeId": 202113,
    "scientific_name": "Aplysina fistularis",
    "name": "sea sponge",
    "parentId": 121476,
    "name_es": "esponja de mar",
    "name_fr": "éponge",
    "name_hu": "szivacs",
    "name_it": "spugna di mare",
    "name_pt": "esponja do mar",
    "name_ca": "esponja de mar",
    "name_ko": "해면",
    "name_de": "Meeresschwamm",
    "name_uk": "морська губка",
    "name_tr": "deniz süngeri"
  },
  {
    "nodeId": 8839,
    "scientific_name": "Anas platyrhynchos",
    "name": "duck",
    "parentId": 8835,
    "name_es": "pato",
    "name_fr": "canard",
    "name_hu": "kacsa",
    "name_it": "papera",
    "name_pt": "pato",
    "name_ca": "ànec",
    "name_ko": "청둥오리",
    "name_de": "Stockente",
    "name_uk": "качка",
    "name_tr": "ördek"
  },
  {
    "nodeId": 9103,
    "scientific_name": "Meleagris gallopavo",
    "name": "turkey",
    "parentId": 9102,
    "name_es": "pavo",
    "name_fr": "dindon",
    "name_hu": "pulyka",
    "name_it": "tacchino",
    "name_pt": "peru",
    "name_ca": "gall dindi",
    "name_ko": "칠면조",
    "name_de": "Truthahn",
    "name_uk": "індичка",
    "name_tr": "hindi"
  },
  {
    "nodeId": 9606,
    "scientific_name": "Homo sapiens",
    "name": "human",
    "parentId": 9605,
    "name_es": "humano",
    "name_fr": "humain",
    "name_hu": "ember",
    "name_it": "umano",
    "name_pt": "humano",
    "name_ca": "humà",
    "name_ko": "인간",
    "name_de": "Mensch",
    "name_uk": "людина",
    "name_tr": "insan"
  },
  {
    "nodeId": 9612,
    "scientific_name": "Canis lupus",
    "name": "wolf",
    "parentId": 9611,
    "name_es": "lobo",
    "name_fr": "loup",
    "name_hu": "farkas",
    "name_it": "lupo",
    "name_pt": "lobo",
    "name_ca": "llop",
    "name_ko": "늑대",
    "name_de": "Wolf",
    "name_uk": "вовк",
    "name_tr": "kurt"
  },
  {
    "nodeId": 9685,
    "scientific_name": "Felis catus",
    "name": "cat",
    "parentId": 9682,
    "name_es": "gato",
    "name_fr": "chat",
    "name_hu": "macska",
    "name_it": "gatto",
    "name_pt": "gato",
    "name_ca": "gat",
    "name_ko": "고양이",
    "name_de": "Katze",
    "name_uk": "кіт",
    "name_tr": "kedi"
  },
  {
    "nodeId": 9733,
    "scientific_name": "Orcinus orca",
    "name": "orca",
    "parentId": 9732,
    "name_es": "orco",
    "name_fr": "orque",
    "name_hu": "kardszárnyú delfin",
    "name_it": "orca",
    "name_pt": "orca",
    "name_ca": "orca",
    "name_ko": "오르카",
    "name_de": "Orca",
    "name_uk": "косатка",
    "name_tr": "katil balina"
  },
  {
    "nodeId": 9793,
    "scientific_name": "Equus asinus",
    "name": "donkey",
    "parentId": 9789,
    "name_es": "burro",
    "name_fr": "âne",
    "name_hu": "szamár",
    "name_it": "asino",
    "name_pt": "burro",
    "name_ca": "ase",
    "name_ko": "당나귀",
    "name_de": "Esel",
    "name_uk": "віслюк",
    "name_tr": "eşek"
  },
  {
    "nodeId": 9823,
    "scientific_name": "Sus scrofa",
    "name": "pig",
    "parentId": 9822,
    "name_es": "cerdo",
    "name_fr": "cochon",
    "name_hu": "sertés",
    "name_it": "maiale",
    "name_pt": "javali",
    "name_ca": "porc senglar",
    "name_ko": "돼지",
    "name_de": "Schwein",
    "name_uk": "свиня",
    "name_tr": "domuz"
  },
  {
    "nodeId": 9874,
    "scientific_name": "Odocoileus virginianus",
    "name": "deer",
    "parentId": 9871,
    "name_es": "ciervo",
    "name_hu": "szarvas",
    "name_fr": "cerf de virginie",
    "name_it": "cervo",
    "name_pt": "cervo",
    "name_ca": "cérvol",
    "name_ko": "사슴",
    "name_de": "Weißwedelhirsch",
    "name_uk": "олень",
    "name_tr": "ak kuyruklu geyik"
  },
  {
    "nodeId": 9925,
    "scientific_name": "Capra hircus",
    "name": "goat",
    "parentId": 9922,
    "name_es": "cabro",
    "name_fr": "chèvre",
    "name_hu": "kecske",
    "name_it": "capra",
    "name_pt": "cabra",
    "name_ca": "cabra",
    "name_ko": "염소",
    "name_de": "Ziege",
    "name_uk": "козел",
    "name_tr": "keçi"
  },
  {
    "nodeId": 9986,
    "scientific_name": "Oryctolagus cuniculus",
    "name": "rabbit",
    "parentId": 9984,
    "name_es": "conejo",
    "name_fr": "lapin",
    "name_hu": "nyúl",
    "name_it": "coniglio",
    "name_pt": "coelho",
    "name_ca": "conill",
    "name_ko": "토끼",
    "name_de": "Kaninchen",
    "name_uk": "кролик",
    "name_tr": "tavşan"
  },
  {
    "nodeId": 27706,
    "scientific_name": "Micropterus salmoides",
    "name": "bass",
    "parentId": 27705,
    "name_es": "lubina",
    "name_fr": "perche noire",
    "name_hu": "pisztrángsügér",
    "name_it": "pesce persico",
    "name_pt": "achigã",
    "name_ca": "perca americana",
    "name_ko": "배스",
    "name_de": "Forellenbarsch",
    "name_uk": "чорний окунь",
    "name_tr": "levrek"
  },
  {
    "nodeId": 48420,
    "scientific_name": "Gulo gulo",
    "name": "wolverine",
    "parentId": 48419,
    "name_es": "glotón",
    "name_fr": "glouton",
    "name_hu": "rozsomák",
    "name_it": "ghiottone",
    "name_pt": "glutão",
    "name_ca": "golut",
    "name_ko": "울버린",
    "name_de": "Vielfraß",
    "name_uk": "росомаха",
    "name_tr": "kutup porsuğu"
  },
  {
    "nodeId": 51900,
    "scientific_name": "Anodorhynchus hyacinthinus",
    "name": "macaw",
    "parentId": 51899,
    "name_es": "guacamayo",
    "name_fr": "ara",
    "name_hu": "jácintara",
    "name_it": "ara",
    "name_pt": "arara-azul",
    "name_ca": "guacamai jacint",
    "name_ko": "금강앵무",
    "name_de": "Hyazinthara",
    "name_uk": "ара",
    "name_tr": "sümbül makav"
  },
  {
    "nodeId": 163847,
    "scientific_name": "Crithagra flaviventris",
    "name": "canary",
    "parentId": 1892169,
    "name_es": "canario",
    "name_fr": "serin",
    "name_hu": "kanári",
    "name_it": "canarino",
    "name_pt": "canário",
    "name_ca": "canari",
    "name_ko": "카나리아",
    "name_de": "Kanarienvogel",
    "name_uk": "канарейка",
    "name_tr": "kanarya"
  },
  {
    "nodeId": 10116,
    "scientific_name": "Rattus norvegicus",
    "name": "rat",
    "parentId": 10114,
    "name_es": "rato",
    "name_fr": "rat",
    "name_hu": "patkány",
    "name_it": "ratto",
    "name_pt": "rato",
    "name_ca": "rata",
    "name_ko": "시궁쥐",
    "name_de": "Hausratte",
    "name_uk": "щур",
    "name_tr": "sıçan"
  },
  {
    "nodeId": 46460,
    "scientific_name": "Milnesium tardigradum",
    "name": "tardigrade",
    "parentId": 46459,
    "name_es": "tardigrado",
    "name_fr": "tardigrade",
    "name_hu": "medveállatka",
    "name_it": "tardigrado",
    "name_pt": "tardígrado",
    "name_ca": "tardígrad",
    "name_ko": "곰벌레",
    "name_de": "Wasserbär",
    "name_uk": "тихохід",
    "name_tr": "tardigrad"
  },
  {
    "nodeId": 9771,
    "scientific_name": "Balaenoptera musculus",
    "name": "blue whale",
    "parentId": 9766,
    "name_es": "ballena azul",
    "name_fr": "baleine bleue",
    "name_hu": "kék bálna",
    "name_it": "balenottera azzurra",
    "name_pt": "baleia-azul",
    "name_ca": "rorqual blau",
    "name_ko": "대왕고래",
    "name_de": "Blauwal",
    "name_uk": "синій кит",
    "name_tr": "mavi balina"
  },
  {
    "nodeId": 9742,
    "scientific_name": "Phocoena phocoena",
    "name": "porpoise",
    "parentId": 9741,
    "name_es": "marsopa",
    "name_fr": "marsouin",
    "name_hu": "barázdásdelfin",
    "name_it": "focena",
    "name_pt": "toninha",
    "name_ca": "porpoise",
    "name_ko": "쇠돌고래",
    "name_de": "porpoise",
    "name_uk": "морська свиня",
    "name_tr": "mutur"
  },
  {
    "nodeId": 30588,
    "scientific_name": "Leontopithecus rosalia",
    "name": "tamarin",
    "parentId": 30587,
    "name_es": "saguinus",
    "name_fr": "tamarin-lion",
    "name_hu": "tamarin",
    "name_ca": "saguinus",
    "name_de": "Saguinus",
    "name_it": "saguinus",
    "name_pt": "saguinus",
    "name_ko": "타마린",
    "name_uk": "імператорський тамарин",
    "name_tr": "tamarin"
  },
  {
    "nodeId": 182253,
    "scientific_name": "Alouatta pigra",
    "name": "howler monkey",
    "parentId": 9499,
    "name_es": "alouatta",
    "name_fr": "singe hurleur",
    "name_hu": "alouatta",
    "name_ca": "aluata",
    "name_de": "Brüllaffen",
    "name_it": "alouatta",
    "name_pt": "bugio",
    "name_ko": "고함원숭이",
    "name_uk": "ревун",
    "name_tr": "uluyan maymun"
  },
  {
    "nodeId": 34899,
    "scientific_name": "Petaurus breviceps",
    "name": "sugar glider",
    "parentId": 34898,
    "name_es": "petauro del azúcar",
    "name_fr": "phalanger volant",
    "name_hu": "törpe erszényesmókus",
    "name_ca": "petaure del sucre",
    "name_de": "Kurzkopfgleitbeutler",
    "name_it": "petauro dello zucchero",
    "name_pt": "petauro-do-açúcar",
    "name_ko": "유대하늘다람쥐",
    "name_uk": "карликова сумчаста летяга",
    "name_tr": "şeker planörü"
  },
  {
    "nodeId": 29067,
    "scientific_name": "Potos flavus",
    "name": "kinkajou",
    "parentId": 29066,
    "name_es": "kinkajú",
    "name_fr": "kinkajou",
    "name_hu": "farksodró",
    "name_ca": "kinkajú",
    "name_de": "Wickelbär",
    "name_it": "cercoletto",
    "name_pt": "jupará",
    "name_ko": "킨카주",
    "name_uk": "кінкажу",
    "name_tr": "kinkaju"
  },
  {
    "nodeId": 3370412,
    "scientific_name": "Nyctereutes viverrinus",
    "name": "tanuki",
    "parentId": 34879,
    "name_es": "tanuki",
    "name_fr": "chien viverrin",
    "name_hu": "tanuki",
    "name_it": "tanuki",
    "name_pt": "tanuki",
    "name_ca": "tanuki",
    "name_ko": "일본너구리",
    "name_de": "Tanuki",
    "name_uk": "танукі",
    "name_tr": "rakun köpeği"
  },
  {
    "nodeId": 9813,
    "scientific_name": "Procavia capensis",
    "name": "hyrax",
    "parentId": 9812,
    "name_es": "daman",
    "name_fr": "daman",
    "name_hu": "szirtiborz-alakúak",
    "name_ca": "daman",
    "name_de": "Schliefer",
    "name_it": "irace",
    "name_pt": "hiracoides",
    "name_ko": "바위너구리목",
    "name_uk": "даман",
    "name_tr": "daman"
  },
  {
    "nodeId": 9802,
    "scientific_name": "Tapirus indicus",
    "name": "tapir",
    "parentId": 9800,
    "name_es": "tapir",
    "name_fr": "tapir",
    "name_hu": "tapírfélék",
    "name_ca": "tapírids",
    "name_de": "Tapir",
    "name_it": "tapiro",
    "name_pt": "anta",
    "name_ko": "맥",
    "name_uk": "тапір",
    "name_tr": "tapir"
  },
  {
    "nodeId": 10181,
    "scientific_name": "Heterocephalus glaber",
    "name": "naked mole rat",
    "parentId": 10180,
    "name_es": "rata topo desnuda",
    "name_fr": "rat-taupe nu",
    "name_hu": "meztelen vakond patkány",
    "name_it": "ratto talpa nudo",
    "name_pt": "rato-toupeira pelado",
    "name_ca": "rata talp nua",
    "name_ko": "벌거숭이두더지쥐",
    "name_de": "Nacktmull",
    "name_uk": "голий землекоп",
    "name_tr": "çıplak kör fare"
  },
  {
    "nodeId": 45480,
    "scientific_name": "Cynomys ludovicianus",
    "name": "prairie dog",
    "parentId": 45478,
    "name_es": "perrito de las praderas",
    "name_fr": "chien de prairie",
    "name_hu": "prérikutya",
    "name_it": "cane della prateria",
    "name_pt": "cão de pradaria",
    "name_ca": "gos de les praderies",
    "name_ko": "프레리도그",
    "name_de": "Präriehund",
    "name_uk": "лучний собачка",
    "name_tr": "çayır köpeği"
  },
  {
    "nodeId": 48087,
    "scientific_name": "Lepus californicus",
    "name": "hare",
    "parentId": 9980,
    "name_es": "liebre",
    "name_fr": "lièvre",
    "name_hu": "mezei nyúl",
    "name_it": "lepre",
    "name_pt": "lebre",
    "name_ca": "llebre",
    "name_ko": "산토끼",
    "name_de": "Feldhase",
    "name_uk": "заєць",
    "name_tr": "yabani tavşan"
  },
  {
    "nodeId": 9669,
    "scientific_name": "Mustela putorius furo",
    "name": "ferret",
    "parentId": 9668,
    "name_es": "hurón",
    "name_fr": "furet",
    "name_hu": "vadászmenyét",
    "name_it": "furetto",
    "name_pt": "furão",
    "name_ca": "fura",
    "name_ko": "가는 리본",
    "name_de": "Frettchen",
    "name_uk": "тхір",
    "name_tr": "gelincik"
  },
  {
    "nodeId": 10152,
    "scientific_name": "Chinchilla chinchilla",
    "name": "chinchilla",
    "parentId": 10151,
    "name_es": "chinchilla",
    "name_fr": "chinchilla",
    "name_hu": "csincsilla",
    "name_it": "cincillà",
    "name_pt": "chinchila",
    "name_ca": "xinxilla",
    "name_ko": "친칠라",
    "name_de": "Chinchilla",
    "name_uk": "шиншила",
    "name_tr": "chinchilla"
  },
  {
    "nodeId": 94186,
    "scientific_name": "Civettictis civetta",
    "name": "civet",
    "parentId": 94185,
    "name_es": "algalia",
    "name_fr": "civette",
    "name_hu": "cibet",
    "name_it": "zibetto",
    "name_pt": "civeta",
    "name_ca": "civet",
    "name_ko": "사향고양이",
    "name_de": "Zibetkatze",
    "name_uk": "циветта",
    "name_tr": "misk kedisi"
  },
  {
    "nodeId": 9615,
    "scientific_name": "Canis lupus familiaris",
    "name": "dog",
    "parentId": 9612,
    "name_es": "perro",
    "name_fr": "chien",
    "name_hu": "kutya",
    "name_it": "cane",
    "name_pt": "cão",
    "name_ca": "gos",
    "name_ko": "개",
    "name_de": "Hund",
    "name_uk": "собака",
    "name_tr": "kedi"
  },
  {
    "nodeId": 72542,
    "scientific_name": "Capra ibex",
    "name": "ibex",
    "parentId": 9922,
    "name_es": "ìbice",
    "name_fr": "bouquetin",
    "name_hu": "kőszáli kecske",
    "name_it": "stambecco",
    "name_pt": "cabra alpina",
    "name_ca": "cabra alpina",
    "name_ko": "아이벡스",
    "name_de": "Steinbock",
    "name_uk": "альпійський козел",
    "name_tr": "Alp dağ keçisi"
  },
  {
    "nodeId": 41426,
    "scientific_name": "Phacochoerus africanus",
    "name": "warthog",
    "parentId": 41425,
    "name_es": "facóquero",
    "name_fr": "phacochère",
    "name_hu": "varacskos disznó",
    "name_it": "facocero",
    "name_pt": "javali-africano",
    "name_ca": "senglar",
    "name_ko": "멧돼지",
    "name_de": "Warzenschwein",
    "name_uk": "бородавочник",
    "name_tr": "düğmeli domuz"
  },
  {
    "nodeId": 8787,
    "scientific_name": "Casuarius casuarius",
    "name": "cassowary",
    "parentId": 8786,
    "name_es": "casuario",
    "name_fr": "casoar",
    "name_hu": "kazuár",
    "name_it": "casuario",
    "name_pt": "casuar",
    "name_ca": "casuari",
    "name_ko": "화식조",
    "name_de": "Kasuar",
    "name_uk": "казуар",
    "name_tr": "tepeli devekuşu"
  },
  {
    "nodeId": 56072,
    "scientific_name": "Ardea herodias",
    "name": "heron",
    "parentId": 30389,
    "name_es": "garza",
    "name_fr": "héron",
    "name_hu": "gém",
    "name_it": "airone",
    "name_pt": "garça",
    "name_ca": "bernat pescaire",
    "name_ko": "왜가리",
    "name_de": "Reiher",
    "name_uk": "чапля",
    "name_tr": "balıkçıl"
  },
  {
    "nodeId": 110620,
    "scientific_name": "Ardea alba",
    "name": "egret",
    "parentId": 30389,
    "name_es": "garceta",
    "name_fr": "aigrette",
    "name_hu": "kócsag",
    "name_it": "airone bianco",
    "name_pt": "garça-branca",
    "name_ca": "garceta",
    "name_ko": "백로",
    "name_de": "Silberreiher",
    "name_uk": "біла чапля",
    "name_tr": "büyük ak balıkçıl"
  },
  {
    "nodeId": 36278,
    "scientific_name": "Troglodytes troglodytes",
    "name": "wren",
    "parentId": 36277,
    "name_es": "chochín común",
    "name_fr": "troglodyte",
    "name_hu": "ökörszem",
    "name_it": "scricciolo",
    "name_pt": "carriça",
    "name_ca": "wren",
    "name_ko": "렌",
    "name_de": "Zaunkönig",
    "name_uk": "крапивник",
    "name_tr": "çit kuşu"
  },
  {
    "nodeId": 8895,
    "scientific_name": "Apus apus",
    "name": "swift",
    "parentId": 8894,
    "name_es": "vencejo",
    "name_fr": "martinet",
    "name_hu": "sarlósfecske",
    "name_it": "rondone",
    "name_pt": "andorinhão",
    "name_ca": "falciot",
    "name_ko": "칼새",
    "name_de": "Segler",
    "name_uk": "стриж",
    "name_tr": "ebabil kuşu"
  },
  {
    "nodeId": 43150,
    "scientific_name": "Hirundo rustica",
    "name": "swallow",
    "parentId": 43149,
    "name_es": "golondrina",
    "name_fr": "hirondelle",
    "name_hu": "fecskefélék",
    "name_it": "rondine",
    "name_pt": "andorinha",
    "name_ca": "oreneta",
    "name_ko": "제비",
    "name_de": "Schwalbe",
    "name_uk": "ластівка",
    "name_tr": "kır kırlangıcı"
  },
  {
    "nodeId": 56262,
    "scientific_name": "Pandion haliaetus",
    "name": "osprey",
    "parentId": 56261,
    "name_es": "águila pescadora",
    "name_fr": "balbuzard pêcheur",
    "name_hu": "halászsas",
    "name_it": "falco pescatore",
    "name_pt": "águia-pesqueira",
    "name_ca": "àguila pescadora",
    "name_ko": "물수리",
    "name_de": "Fischadler",
    "name_uk": "скопа",
    "name_tr": "balık kartalı"
  },
  {
    "nodeId": 46550,
    "scientific_name": "Diomedea exulans",
    "name": "albatross",
    "parentId": 37068,
    "name_es": "albatros",
    "name_fr": "albatros",
    "name_hu": "albatrosz",
    "name_it": "albatros",
    "name_pt": "albatroz",
    "name_ca": "albatros",
    "name_ko": "신천옹",
    "name_de": "Albatros",
    "name_uk": "альбатрос",
    "name_tr": "albatros"
  },
  {
    "nodeId": 1385931,
    "scientific_name": "Eoperipatus totoro",
    "name": "velvet worm",
    "parentId": 1198995,
    "name_es": "gusano de terciopelo",
    "name_fr": "onychophore",
    "name_hu": "bársonyféreg",
    "name_it": "verme di velluto",
    "name_pt": "verme de veludo",
    "name_ca": "cuc de vellut",
    "name_ko": "벨벳 벌레",
    "name_de": "Samtwurm",
    "name_uk": "оксамитовий черв'як",
    "name_tr": "kadife solucanı"
  },
  {
    "nodeId": 6206,
    "scientific_name": "Taenia saginata",
    "name": "tapeworm",
    "parentId": 6202,
    "name_es": "tenia",
    "name_fr": "ténia",
    "name_hu": "galandféreg",
    "name_it": "tenia",
    "name_pt": "tênia",
    "name_ca": "tènia",
    "name_ko": "촌충",
    "name_de": "Bandwurm",
    "name_uk": "ціп’як",
    "name_tr": "tenya"
  },
  {
    "nodeId": 6287,
    "scientific_name": "Dirofilaria immitis",
    "name": "heartworm",
    "parentId": 6286,
    "name_es": "gusano del corazón",
    "name_fr": "dirofilaria",
    "name_hu": "szívféreg",
    "name_it": "verme cardiaco",
    "name_pt": "verme do coração",
    "name_ca": "cuc del cor",
    "name_ko": "심장사상충",
    "name_de": "Herzwurm",
    "name_uk": "дирофілярія",
    "name_tr": "kalp kurdu"
  },
  {
    "nodeId": 6239,
    "scientific_name": "Caenorhabditis elegans",
    "name": "nematode",
    "parentId": 6237,
    "name_es": "nematodo",
    "name_fr": "nématode",
    "name_hu": "fonálféreg",
    "name_it": "nematode",
    "name_pt": "nematódeo",
    "name_ca": "nematode",
    "name_ko": "선형동물",
    "name_de": "Nematode",
    "name_uk": "нематода",
    "name_tr": "yuvarlak solucan"
  },
  {
    "nodeId": 206118,
    "scientific_name": "Mastacembelus erythrotaenia",
    "name": "fire eel",
    "parentId": 94234,
    "name_es": "anguila de fuego",
    "name_fr": "anguille épineuse",
    "name_hu": "tűz angolna",
    "name_it": "anguilla di fuoco",
    "name_pt": "enguia de fogo",
    "name_ca": "anguila de foc",
    "name_ko": "불장어",
    "name_de": "Feuer-Stachelaal",
    "name_uk": "вогняний вугор",
    "name_tr": "ateş yılan balığı"
  },
  {
    "nodeId": 6087,
    "scientific_name": "Hydra vulgaris",
    "name": "freshwater polyp",
    "parentId": 6083,
    "name_es": "hidra",
    "name_fr": "hydre",
    "name_hu": "édesvízi polip",
    "name_it": "polipo d'acqua dolce",
    "name_pt": "pólipo de água doce",
    "name_ca": "Pòlip d'aigua dolça",
    "name_ko": "민물 폴립",
    "name_de": "Süßwasserpolypen",
    "name_uk": "гідра",
    "name_tr": "tatlısu polibi"
  },
  {
    "nodeId": 27804,
    "scientific_name": "Cyanea capillata",
    "name": "lions mane jellyfish",
    "parentId": 27803,
    "name_es": "medusa melena de león ártica",
    "name_fr": "méduse à crinière de lion",
    "name_hu": "sárga hajasmedúza",
    "name_it": "medusa criniera di leone",
    "name_pt": "água-viva-juba-de-leão",
    "name_ca": "medusa cabellera de lleó",
    "name_ko": "사자갈기 해파리",
    "name_de": "Löwenmähnenqualle",
    "name_uk": "медуза левова грива",
    "name_tr": "aslan yelesi denizanası"
  },
  {
    "nodeId": 301549,
    "scientific_name": "Pecten novaezelandiae",
    "name": "scallop",
    "parentId": 6578,
    "name_es": "vieira",
    "name_fr": "coquille saint-jacques",
    "name_hu": "fésűkagyló",
    "name_it": "capesante",
    "name_pt": "vieira",
    "name_ca": "vieira",
    "name_ko": "가리비",
    "name_de": "Kammmuschel",
    "name_uk": "гребінець",
    "name_tr": "Yeni Zelanda tarağı"
  },
  {
    "nodeId": 55288,
    "scientific_name": "Vampyroteuthis infernalis",
    "name": "vampire squid",
    "parentId": 55287,
    "name_es": "calamar vampiro",
    "name_fr": "vampire des abysses",
    "name_hu": "vámpírtintahal",
    "name_it": "calamaro vampiro",
    "name_pt": "lula-vampira-do-inferno",
    "name_ca": "calamar vampir",
    "name_ko": "흡혈오징어",
    "name_de": "Vampirtintenfisch",
    "name_uk": "пекельний вампір",
    "name_tr": "vampir kalamar"
  },
  {
    "nodeId": 2109549,
    "scientific_name": "Alpheus digitalis",
    "name": "pistol shrimp",
    "parentId": 29967,
    "name_es": "camarón pistola",
    "name_fr": "crevette pistolet",
    "name_hu": "pisztoly garnélarák",
    "name_it": "pistola gamberetti",
    "name_pt": "camarão-pistola",
    "name_ca": "gambeta pistola",
    "name_ko": "딱총새우",
    "name_de": "Pistolenkrebse",
    "name_uk": "креветка-пістолет",
    "name_tr": "tabanca karidesi"
  },
  {
    "nodeId": 177283,
    "scientific_name": "Birgus latro",
    "name": "coconut crab",
    "parentId": 177282,
    "name_es": "cangrejo de los cocoteros",
    "name_fr": "crabe de cocotier",
    "name_hu": "kókuszrák",
    "name_it": "paguro del cocco",
    "name_pt": "caranguejo-dos-coqueiros",
    "name_ca": "cranc dels cocoters",
    "name_ko": "야자집게",
    "name_de": "Kokosnussräuber",
    "name_uk": "кокосовий краб",
    "name_tr": "hindistan cevizi yengeci"
  },
  {
    "nodeId": 6850,
    "scientific_name": "Limulus polyphemus",
    "name": "horseshoe crab",
    "parentId": 6849,
    "name_es": "cangrejo herradura",
    "name_fr": "limule",
    "name_hu": "tőrfarkú rák",
    "name_it": "granchio a ferro di cavallo",
    "name_pt": "caranguejo-ferradura",
    "name_ca": "cranc de ferradura",
    "name_ko": "투구게",
    "name_de": "Hufeisenkrebse",
    "name_uk": "підковоподібний краб",
    "name_tr": "at nalı yengeci"
  },
  {
    "nodeId": 338475,
    "scientific_name": "Eudontomyzon mariae",
    "name": "lamprey",
    "parentId": 338474,
    "name_es": "lamprea",
    "name_fr": "lamproie",
    "name_hu": "ingóla",
    "name_it": "lampreda",
    "name_pt": "lampreia",
    "name_ca": "lamprea",
    "name_ko": "칠성장어",
    "name_de": "Neunauge",
    "name_uk": "мінога",
    "name_tr": "Karadeniz dere taşemeni"
  },
  {
    "nodeId": 586820,
    "scientific_name": "Enchelycore pardalis",
    "name": "moray eel",
    "parentId": 426091,
    "name_es": "morena",
    "name_fr": "murène",
    "name_hu": "muréna angolna",
    "name_it": "murena",
    "name_pt": "moreia",
    "name_ca": "anguila morena",
    "name_ko": "곰치",
    "name_de": "Muräne",
    "name_uk": "мурена",
    "name_tr": "moren balığı"
  },
  {
    "nodeId": 259920,
    "scientific_name": "Rhincodon typus",
    "name": "whale shark",
    "parentId": 1849765,
    "name_es": "tiburón ballena",
    "name_fr": "requin-baleine",
    "name_hu": "cetcápa",
    "name_it": "squalo balena",
    "name_pt": "tubarão-baleia",
    "name_ca": "tauró balena",
    "name_ko": "고래상어",
    "name_de": "Walhai",
    "name_uk": "китова акула",
    "name_tr": "balina köpek balığı"
  },
  {
    "nodeId": 8010,
    "scientific_name": "Esox lucius",
    "name": "pike",
    "parentId": 8009,
    "name_es": "lucio",
    "name_fr": "brochet",
    "name_hu": "csuka",
    "name_it": "luccio",
    "name_pt": "lúcio",
    "name_ca": "lluç",
    "name_ko": "강꼬치",
    "name_de": "Hecht",
    "name_uk": "щука",
    "name_tr": "turna balığı"
  },
  {
    "nodeId": 8167,
    "scientific_name": "Perca flavescens",
    "name": "perch",
    "parentId": 8166,
    "name_es": "perca",
    "name_fr": "perchaude",
    "name_hu": "sügér",
    "name_it": "perca",
    "name_pt": "perca",
    "name_ca": "perca",
    "name_ko": "퍼치",
    "name_de": "Flussbarsch",
    "name_uk": "окунь",
    "name_tr": "tatlısu levreği"
  },
  {
    "nodeId": 195615,
    "scientific_name": "Hippoglossus stenolepis",
    "name": "halibut",
    "parentId": 8266,
    "name_es": "halibut",
    "name_fr": "flétan",
    "name_hu": "laposhal",
    "name_it": "halibut",
    "name_pt": "halibute",
    "name_ca": "halibut",
    "name_ko": "넙치",
    "name_de": "Heilbutt",
    "name_uk": "палтус",
    "name_tr": "trança balığı"
  },
  {
    "nodeId": 129044,
    "scientific_name": "Cheilopogon melanurus",
    "name": "flying fish",
    "parentId": 293908,
    "name_es": "pez volador",
    "name_fr": "poisson volant",
    "name_hu": "repülőhal",
    "name_it": "pesce volante",
    "name_pt": "peixe-voador",
    "name_ca": "peix volador",
    "name_ko": "날치",
    "name_de": "fliegender Fisch",
    "name_uk": "летюча риба",
    "name_tr": "uçan balık"
  },
  {
    "nodeId": 8142,
    "scientific_name": "Oreochromis tanganicae",
    "name": "tilapia",
    "parentId": 8139,
    "name_es": "tilapia",
    "name_fr": "tilapia",
    "name_hu": "tilápia",
    "name_it": "tilapia",
    "name_pt": "tilápia",
    "name_ca": "tilàpia",
    "name_ko": "틸라피아",
    "name_de": "Tilapia",
    "name_uk": "тілапія",
    "name_tr": "tilapia balığı"
  },
  {
    "nodeId": 81389,
    "scientific_name": "Regalecus glesne",
    "name": "oarfish",
    "parentId": 81388,
    "name_es": "pez remo",
    "name_fr": "régalec",
    "name_hu": "szíjhal",
    "name_it": "pesce remo",
    "name_pt": "peixe-remo",
    "name_ca": "peix rem",
    "name_ko": "산갈치",
    "name_de": "Riemenfische",
    "name_uk": "оселедцевий король",
    "name_tr": "kürek balığı"
  },
  {
    "nodeId": 7950,
    "scientific_name": "Clupea harengus",
    "name": "herring",
    "parentId": 7949,
    "name_es": "arenque",
    "name_fr": "hareng",
    "name_hu": "hering",
    "name_it": "aringa",
    "name_pt": "arenque",
    "name_ca": "arengada",
    "name_ko": "청어",
    "name_de": "Hering",
    "name_uk": "оселедець",
    "name_tr": "ringa balığı"
  },
  {
    "nodeId": 29150,
    "scientific_name": "Scomber australasicus",
    "name": "mackerel",
    "parentId": 13675,
    "name_es": "caballa",
    "name_fr": "maquereau",
    "name_hu": "makréla",
    "name_it": "sgombro",
    "name_pt": "cavalinha",
    "name_ca": "verat",
    "name_ko": "고등어",
    "name_de": "Makrele",
    "name_uk": "скумбрія",
    "name_tr": "orkinos"
  },
  {
    "nodeId": 1317727,
    "scientific_name": "Pepsis grossa",
    "name": "tarantula hawk wasp",
    "parentId": 173815,
    "name_es": "avispas de las tarántulas",
    "name_fr": "guêpe chasseuse d'araignées",
    "name_hu": "tarantuladarázs",
    "name_it": "vespa cacciatrice di tarantole",
    "name_pt": "vespas tarântulas",
    "name_ca": "vespes de taràntula",
    "name_ko": "타란툴라사냥벌",
    "name_de": "Tarantulafalke",
    "name_uk": "тарантуловий яструб",
    "name_tr": "tarantula şahini"
  },
  {
    "nodeId": 44679,
    "scientific_name": "Magicicada septendecim",
    "name": "cicada",
    "parentId": 254007,
    "name_es": "cigarra",
    "name_fr": "cigale",
    "name_hu": "kabóca",
    "name_it": "cicala",
    "name_pt": "cigarra",
    "name_ca": "cigarra",
    "name_ko": "매미",
    "name_de": "Zikade",
    "name_uk": "цикада",
    "name_tr": "ağustos böceği"
  },
  {
    "nodeId": 2716284,
    "scientific_name": "Scolopendra cataracta",
    "name": "giant centipede",
    "parentId": 41364,
    "name_es": "ciempiés gigante",
    "name_fr": "scolopendre géante",
    "name_hu": "óriás százlábú",
    "name_it": "centopiedi gigante",
    "name_pt": "centopeia gigante",
    "name_ca": "centpeus gegant",
    "name_ko": "거대 지네",
    "name_de": "Riesentausendfüßer",
    "name_uk": "гігантська багатоніжка",
    "name_tr": "dev çıyan"
  },
  {
    "nodeId": 50586,
    "scientific_name": "Lepisma saccharinum",
    "name": "silverfish",
    "parentId": 50585,
    "name_es": "pececillo de plata",
    "name_fr": "poisson d'argent",
    "name_hu": "ezüstös pikkelyke",
    "name_it": "pesciolino d'argento",
    "name_pt": "traça",
    "name_ca": "peixet de plata",
    "name_ko": "좀벌레",
    "name_de": "Silberfischchen",
    "name_uk": "товстолобик",
    "name_tr": "gümüşçün"
  },
  {
    "nodeId": 34613,
    "scientific_name": "Ixodes ricinus",
    "name": "tick",
    "parentId": 6944,
    "name_es": "garrapata",
    "name_fr": "tique",
    "name_hu": "kullancs",
    "name_it": "zecca",
    "name_pt": "carrapato",
    "name_ca": "paparra",
    "name_ko": "진드기",
    "name_de": "Zecke",
    "name_uk": "кліщ",
    "name_tr": "kene"
  },
  {
    "nodeId": 299642,
    "scientific_name": "Nephila pilipes",
    "name": "orbweaver spider",
    "parentId": 6914,
    "name_es": "araña tejedora",
    "name_fr": "néphile",
    "name_hu": "kerek hálós pók",
    "name_it": "ragno tessitore",
    "name_pt": "aranha tecelã",
    "name_ca": "aranya teixidora",
    "name_ko": "공작거미",
    "name_de": "Radnetzspinne",
    "name_uk": "павук-ткач",
    "name_tr": "küre dokumacı örümcek"
  },
  {
    "nodeId": 280423,
    "scientific_name": "Pholcus opilionoides",
    "name": "cellar spider",
    "parentId": 6931,
    "name_es": "araña de bodega",
    "name_fr": "pholque",
    "name_hu": "pincepók",
    "name_it": "ragno di cantina",
    "name_pt": "aranha de porão",
    "name_ca": "aranya de celler",
    "name_ko": "집게거미",
    "name_de": "Kleine Zitterspinne",
    "name_uk": "павук-довгоніжка",
    "name_tr": "kiler örümceği"
  },
  {
    "nodeId": 55084,
    "scientific_name": "Pandinus imperator",
    "name": "emperor scorpion",
    "parentId": 55083,
    "name_es": "escorpión emperador",
    "name_fr": "scorpion empereur",
    "name_hu": "császárskorpió",
    "name_it": "scorpione imperatore",
    "name_pt": "escorpião imperador",
    "name_ca": "escorpí emperador",
    "name_ko": "황제 전갈",
    "name_de": "Kaiserskorpion",
    "name_uk": "імператорський скорпіон",
    "name_tr": "imparator akrep"
  },
  {
    "nodeId": 6921,
    "scientific_name": "Loxosceles reclusa",
    "name": "brown recluse",
    "parentId": 6920,
    "name_es": "araña reclusa parda",
    "name_fr": "recluse brune",
    "name_hu": "barna remetepók",
    "name_it": "ragno violino",
    "name_pt": "aranha marrom",
    "name_ca": "aranya reclusa marró",
    "name_ko": "갈색 은둔자 거미",
    "name_de": "Braune Einsiedlerspinne",
    "name_uk": "коричневий павук-відлюдник",
    "name_tr": "kahverengi münzevi örümcek"
  },
  {
    "nodeId": 475616,
    "scientific_name": "Rilaena triangularis",
    "name": "harvestman",
    "parentId": 475615,
    "name_es": "araña de la cosecha",
    "name_fr": "opilion",
    "name_hu": "kaszáspók",
    "name_it": "ragno mietitore",
    "name_pt": "aranha da colheita",
    "name_ca": "aranya de la collita",
    "name_ko": "수확 거미",
    "name_de": "Erntespinne",
    "name_uk": "косарик",
    "name_tr": "hasatçı örümcek"
  },
  {
    "nodeId": 54263,
    "scientific_name": "Ichthyosaura alpestris",
    "name": "newt",
    "parentId": 339873,
    "name_es": "tritón",
    "name_fr": "triton",
    "name_hu": "tarajosgőte",
    "name_it": "tritone",
    "name_pt": "tritão",
    "name_ca": "tritó",
    "name_ko": "영원",
    "name_de": "Molch",
    "name_uk": "тритон",
    "name_tr": "sukeleri"
  }
]
